Record,Country,Country Secondary Subdivision,Country Subdivision,Subdivision Name,Postal Code,Address,Local Name,Municipality,Municipality Subdivision,entryPoints_0_functions_0,Latitude,Longtitude,poi_brands_1_name,POI Name,URL,Source,Store Name
813850,United States,Fairfield,CT,Connecticut,06830-7232,"1 Windrose Way, Greenwich, CT 06830",Greenwich,Greenwich,Downtown Greenwich,,41.01518,-73.61,,Uranium Markets,www.uraniummarkets.com,Azure Maps,
883850,United States,Fairfield,CT,Connecticut,06830-7138,"4 Davenport Avenue, Greenwich, CT 06830",Greenwich,Greenwich,Downtown Greenwich,,41.01705,-73.62224,,Arguimbau & Co,www.arguimbau-co.com,Azure Maps,
923850,United States,Fairfield,CT,Connecticut,06830-6650,"140 Hamilton Avenue, Greenwich, CT 06830",Greenwich,Greenwich,Downtown West-Chickahominy,,41.01875,-73.63877,,Corner Market,cornermarketgreenwich.business.site,Azure Maps,
863850,United States,Fairfield,CT,Connecticut,06830-6523,"372 Greenwich Avenue, Greenwich, CT 06830",Greenwich,Greenwich,Downtown Greenwich,,41.0228,-73.62484,,Harvest,,Azure Maps,
853850,United States,Fairfield,CT,Connecticut,06830-6507,"244 Greenwich Avenue, Greenwich, CT 06830",Greenwich,Greenwich,Downtown Greenwich,,41.02657,-73.62596,,Lucky Brand,www.luckybrand.com,Azure Maps,
903850,United States,Fairfield,CT,Connecticut,06830-5344,"160 West Putnam Avenue, Greenwich, CT 06830",Greenwich,Greenwich,Downtown Greenwich,,41.0269,-73.63122,,ACME Markets,local.acmemarkets.com/ct/greenwich/160-w-putnam-ave.html,Azure Maps,
893850,United States,Fairfield,CT,Connecticut,06830-5329,"161 West Putnam Avenue, Greenwich, CT 06830",Greenwich,Greenwich,South of Parkway,,41.027,-73.63098,,Super Stop & Shop,stores.stopandshop.com/ct/greenwich/161-west-putnam-avenue,Azure Maps,
843850,United States,Fairfield,CT,Connecticut,06830-5503,"30 Greenwich Avenue, Greenwich, CT 06830",Greenwich,Greenwich,Downtown Greenwich,,41.03035,-73.62681,,Kinnikinnick Foods,consumer.kinnikinnick.com/,Azure Maps,
643850,United States,Fairfield,CT,Connecticut,06870-1721,"26 Arcadia Road, Old Greenwich, CT 06870",Old Greenwich,Greenwich,Old Greenwich,,41.03213,-73.567,,Food Mart Old Greenwich,,Azure Maps,
633850,United States,Fairfield,CT,Connecticut,06870-1721,"26 Arcadia Road, Old Greenwich, CT 06870",Old Greenwich,Greenwich,Old Greenwich,,41.03213,-73.567,,Genesis King Super Markets,,Azure Maps,
833850,United States,Fairfield,CT,Connecticut,06830-5626,"90 East Putnam Avenue, Greenwich, CT 06830",Greenwich,Greenwich,Downtown Greenwich,FrontDoor,41.03319,-73.6242,,Fresh Fields Market,,Azure Maps,
823850,United States,Fairfield,CT,Connecticut,06830-5626,"90 East Putnam Avenue, Greenwich, CT 06830",Greenwich,Greenwich,Downtown Greenwich,FrontDoor,41.03319,-73.6242,,Whole Foods Market,www.wholefoodsmarket.com/stores/greenwich,Azure Maps,
493850,United States,Fairfield,CT,Connecticut,06902-7428,"262 Harbor Drive, Stamford, CT 06902",Stamford,Stamford,Shippan,,41.03403,-73.53489,,Market76,,Azure Maps,
593850,United States,Fairfield,CT,Connecticut,06870-1509,"10 Rockland Place, Old Greenwich, CT 06870",Old Greenwich,Greenwich,Old Greenwich,,41.03593,-73.56693,,Wellness Solutions,,Azure Maps,
673850,United States,Fairfield,CT,Connecticut,06878-1834,"44 Druid Lane, Riverside, CT 06878",Riverside,Greenwich,Riverside,,41.03693,-73.57946,,Noble International Foods,www.nobleintlfoods.com/,Azure Maps,
723850,United States,Fairfield,CT,Connecticut,06807-2701,"122 East Putnam Avenue, Cos Cob, CT 06807",Cos Cob,Greenwich,Cos Cob,,41.03731,-73.60081,,Food Mart Cos Cob,,Azure Maps,
393850,United States,Fairfield,CT,Connecticut,06902-7219,"60 Selleck Street, Stamford, CT 06902",Stamford,Stamford,Waterside,,41.04043,-73.54959,,Utuado Grocery,,Azure Maps,
363850,United States,Fairfield,CT,Connecticut,06902-6711,"324 Greenwich Avenue, Stamford, CT 06902",Stamford,Stamford,Waterside,,41.04051,-73.54797,,Chapin Grocery,,Azure Maps,
693850,United States,Fairfield,CT,Connecticut,06878-1333,"1075 East Putnam Avenue, Riverside, CT 06878",Riverside,Greenwich,Riverside,,41.04085,-73.58559,,Aux Delices Gourmet Foods,,Azure Maps,
233850,United States,Fairfield,CT,Connecticut,06902-7328,"738 South Pacific Street, Stamford, CT 06902",Stamford,Stamford,South End,,41.04178,-73.53844,,Reyes's Deli & Grocery,,Azure Maps,
653850,United States,Fairfield,CT,Connecticut,06878-7701,"1261 East Putnam Avenue, Riverside, CT 06878",Riverside,Greenwich,Riverside,,41.04189,-73.57697,,ACME Markets,acmemarkets.com,Azure Maps,
413850,United States,Fairfield,CT,Connecticut,06902-6622,"29 Irving Avenue, Stamford, CT 06902",Stamford,Stamford,Waterside,,41.04195,-73.55346,,Selleck Market,,Azure Maps,
473850,United States,Fairfield,CT,Connecticut,06902-6302,"23 Ardmore Road, Stamford, CT 06902",Stamford,Stamford,Waterside,,41.04382,-73.55883,,Bongiorno Supermarket,,Azure Maps,
623850,United States,Fairfield,CT,Connecticut,06870-1303,"1345 East Putnam Avenue, Old Greenwich, CT 06870",Old Greenwich,Greenwich,Riverside,,41.04382,-73.57349,,V & V Mini Market,,Azure Maps,
163850,United States,Fairfield,CT,Connecticut,06902-6936,"229 Henry Street, Stamford, CT 06902",Stamford,Stamford,South End,,41.04407,-73.53428,,Rosaria Market,,Azure Maps,
133850,United States,Fairfield,CT,Connecticut,06902-5818,"655 South Pacific Street, Stamford, CT 06902",Stamford,Stamford,South End,,41.04454,-73.53761,,Morandeli & Grocery,,Azure Maps,
123850,United States,Fairfield,CT,Connecticut,06902-6803,"745 Atlantic Street, Stamford, CT 06902",Stamford,Stamford,South End,,41.0447,-73.54009,,Dominican Store,,Azure Maps,
283850,United States,Fairfield,CT,Connecticut,06902-6010,"379 Shippan Avenue, Stamford, CT 06902",Stamford,Stamford,Shippan,,41.04587,-73.52391,,Shippan Corners,shippan-corner-variety.business.site,Azure Maps,
253850,United States,Fairfield,CT,Connecticut,06902-6013,"200 Shippan Avenue, Stamford, CT 06902",Stamford,Stamford,Cove,,41.04814,-73.52428,,ShopRite,www.shoprite.com,Azure Maps,
303850,United States,Fairfield,CT,Connecticut,06902-4711,"417 West Main Street, Stamford, CT 06902",Stamford,Stamford,West Side,,41.04819,-73.55552,,West Main Convenience,,Azure Maps,
343850,United States,Fairfield,CT,Connecticut,06902-4714,"432 West Main Street, Stamford, CT 06902",Stamford,Stamford,West Side,,41.04822,-73.55592,,La Marqueta,,Azure Maps,
403850,United States,Fairfield,CT,Connecticut,06902-5515,"495 West Main Street, Stamford, CT 06902",Stamford,Stamford,West Side,,41.04843,-73.55836,,West Main Grocery,,Azure Maps,
523850,United States,Fairfield,CT,Connecticut,06902-4522,"1990 West Main Street, Stamford, CT 06902",Stamford,Stamford,West Side,,41.04858,-73.56514,,ShopRite,shop.shoprite.com/store/4c7d797,Azure Maps,
193850,United States,Fairfield,CT,Connecticut,06902-5019,"335 West Main Street, Stamford, CT 06902",Stamford,Stamford,West Side,,41.04868,-73.55148,,En-Bas-Marche-En-Bas,,Azure Maps,
213850,United States,Fairfield,CT,Connecticut,06902-5019,"335 West Main Street, Stamford, CT 06902",Stamford,Stamford,West Side,,41.04868,-73.55148,,Yenne Yenne,,Azure Maps,
443850,United States,Fairfield,CT,Connecticut,06902-4516,"1937 West Main Street, Stamford, CT 06902",Stamford,Stamford,West Side,,41.04874,-73.56129,,Ahold,www.aholdusa.com,Azure Maps,
453850,United States,Fairfield,CT,Connecticut,06902-4516,"1937 West Main Street, Stamford, CT 06902",Stamford,Stamford,West Side,,41.04874,-73.56129,,Kinnikinnick Foods,consumer.kinnikinnick.com/,Azure Maps,
463850,United States,Fairfield,CT,Connecticut,06902-4516,"1937 West Main Street, Stamford, CT 06902",Stamford,Stamford,West Side,,41.04874,-73.56129,,Stop & Shop,stores.stopandshop.com/ct/stamford/1937-west-main-street,Azure Maps,
483850,United States,Fairfield,CT,Connecticut,06902-4560,"2000 West Main Street, Stamford, CT 06902",Stamford,Stamford,West Side,,41.04883,-73.56383,,Wakefern Food,,Azure Maps,
553850,United States,Fairfield,CT,Connecticut,06902-5425,"1125 Cove Road, Stamford, CT 06902",Stamford,Stamford,Cove,,41.04894,-73.50673,,Costa Foods,,Azure Maps,
353850,United States,Fairfield,CT,Connecticut,06902-4610,"12 Dryden Street, Stamford, CT 06902",Stamford,Stamford,West Side,,41.04912,-73.55658,,Minor Place,,Azure Maps,
293850,United States,Fairfield,CT,Connecticut,06902-5222,"148 Cove Road, Stamford, CT 06902",Stamford,Stamford,East Side,,41.04922,-73.52176,,Cove RD Groceries,,Azure Maps,
323850,United States,Fairfield,CT,Connecticut,06902-5218,"169 Cove Road, Stamford, CT 06902",Stamford,Stamford,Cove,,41.04929,-73.52141,,Le Deros,,Azure Maps,
313850,United States,Fairfield,CT,Connecticut,06902-5218,"169 Cove Road, Stamford, CT 06902",Stamford,Stamford,Cove,,41.04929,-73.52141,,Los Luceros Grocery,,Azure Maps,
503850,United States,Fairfield,CT,Connecticut,06902-4510,"30 Myano Lane, Stamford, CT 06902",Stamford,Stamford,West Side,,41.04985,-73.56428,,Northeast Food Marketing,,Azure Maps,
63850,United States,Fairfield,CT,Connecticut,06902-5027,"190 West Main Street, Stamford, CT 06902",Stamford,Stamford,West Side,,41.05019,-73.54781,,C O N Mini Market,,Azure Maps,
53850,United States,Fairfield,CT,Connecticut,06902-5027,"190 West Main Street, Stamford, CT 06902",Stamford,Stamford,West Side,,41.05019,-73.54781,,West Side Market,www.westsidemarket.com,Azure Maps,
93850,United States,Fairfield,CT,Connecticut,06902-4842,"87 Stillwater Avenue, Stamford, CT 06902",Stamford,Stamford,West Side,,41.05214,-73.54947,,Fabre Luis,,Azure Maps,
83850,United States,Fairfield,CT,Connecticut,06902-4842,"87 Stillwater Avenue, Stamford, CT 06902",Stamford,Stamford,West Side,,41.05214,-73.54947,,La Esquina Groce,,Azure Maps,
183850,United States,Fairfield,CT,Connecticut,06902-4843,"155 Stillwater Avenue, Stamford, CT 06902",Stamford,Stamford,West Side,,41.05216,-73.55263,,Stillwater Market,,Azure Maps,
203850,United States,Fairfield,CT,Connecticut,06902-4821,"181 Stillwater Avenue, Stamford, CT 06902",Stamford,Stamford,West Side,,41.05221,-73.5529,,Stamford Market,www.fairwaymarket.com/store/stamford-ct/,Azure Maps,
223850,United States,Fairfield,CT,Connecticut,06902-4821,"181 Stillwater Avenue, Stamford, CT 06902",Stamford,Stamford,West Side,,41.05221,-73.5529,,Stamford Supermarket,www.stamfordsubaru.com,Azure Maps,
13850,United States,Fairfield,CT,Connecticut,06901-2201,"924 Washington Boulevard, Stamford, CT 06901",Stamford,Stamford,Downtown Stamford,,41.05231,-73.54231,,Saibaba,,Azure Maps,
3850,United States,Fairfield,CT,Connecticut,06901-3504,"209 Atlantic Street, Stamford, CT 06901",Stamford,Stamford,Downtown Stamford,,41.05236,-73.53944,,247 Atlantic Market,,Azure Maps,
33850,United States,Fairfield,CT,Connecticut,06902-4831,"57 Smith Street, Stamford, CT 06902",Stamford,Stamford,West Side,,41.0526,-73.5484,,Mi Tierra Mini Market,,Azure Maps,
273850,United States,Fairfield,CT,Connecticut,06902-4220,"100 Lockwood Avenue, Stamford, CT 06902",Stamford,Stamford,East Side,,41.05267,-73.52154,,Lucerito Family Grocery,,Azure Maps,
263850,United States,Fairfield,CT,Connecticut,06902-4824,"232 Stillwater Avenue, Stamford, CT 06902",Stamford,Stamford,West Side,,41.05284,-73.55552,,Two Brothers Supermarket,,Azure Maps,
173850,United States,Fairfield,CT,Connecticut,06902-4829,"29 Hospital Plaza, Stamford, CT 06902",Stamford,Stamford,West Side,,41.05321,-73.55185,,Latino Grocery,,Azure Maps,
423850,United States,Fairfield,CT,Connecticut,,"76 Progress Dr, Stamford, CT 06902",Stamford,Stamford,West Side,,41.05384,-73.56064,,Feinfocus Foods USA,,Azure Maps,
143850,United States,Fairfield,CT,Connecticut,06902-3903,"818 East Main Street, Stamford, CT 06902",Stamford,Stamford,East Side,,41.0553,-73.52717,,East Main Market,,Azure Maps,
113850,United States,Fairfield,CT,Connecticut,06902-3700,"116 West Broad Street, Stamford, CT 06902",Stamford,Stamford,West Side,,41.05588,-73.5498,,Star Grocery,,Azure Maps,
243850,United States,Fairfield,CT,Connecticut,06902-4054,"912 East Main Street, Stamford, CT 06902",Stamford,Stamford,East Side,,41.05597,-73.52307,,A & J Mini Mart,,Azure Maps,
513850,United States,Fairfield,CT,Connecticut,06902-2127,"77 Havemeyer Lane, Stamford, CT 06902",Stamford,Stamford,West Side,,41.05597,-73.56581,,Palmer Hill Partners,www.palmerhillhomes.com,Azure Maps,
333850,United States,Fairfield,CT,Connecticut,,"958 East Main Street, Stamford, CT 06902",Stamford,Stamford,East Side,,41.05619,-73.52085,,Las Americas Market,,Azure Maps,
43850,United States,Fairfield,CT,Connecticut,06902-3717,"20 Adams Avenue, Stamford, CT 06902",Stamford,Stamford,Ridgeway-Bulls Head,,41.05648,-73.54757,,Adams Grocery Store,,Azure Maps,
153850,United States,Fairfield,CT,Connecticut,06902-2233,"26 Anderson Street, Stamford, CT 06902",Stamford,Stamford,Ridgeway-Bulls Head,,41.05679,-73.54954,,L Mercado,,Azure Maps,
433850,United States,Fairfield,CT,Connecticut,06902-3207,"236 Seaton Road, Stamford, CT 06902",Stamford,Stamford,East Side,,41.05957,-73.51689,,Amir Market,,Azure Maps,
23850,United States,Fairfield,CT,Connecticut,06901-1201,"135 Prospect Street, Stamford, CT 06901",Stamford,Stamford,Downtown Stamford,,41.05993,-73.53412,,for Your Convenience,,Azure Maps,
543850,United States,Fairfield,CT,Connecticut,06902-3555,"1290 East Main Street, Stamford, CT 06902",Stamford,Stamford,East Side,,41.0607,-73.50811,,Norseland Foods,,Azure Maps,
73850,United States,Fairfield,CT,Connecticut,,"1200 Summer Street, Stamford, CT 06901",Stamford,Stamford,Ridgeway-Bulls Head,,41.06129,-73.54134,,Arctic Foods,,Azure Maps,
103850,United States,Fairfield,CT,Connecticut,,"1234 Summer Street, Stamford, CT 06901",Stamford,Stamford,Ridgeway-Bulls Head,,41.06149,-73.54148,,Van Luin Foods USA,www.gulfood.com,Azure Maps,
6711533,United States,Fairfield,CT,Connecticut,06853-1411,"137 Rowayton Avenue, Norwalk, CT 06853",Norwalk,Norwalk,,,41.06746,-73.44368,,Rafferty Capital Market,www.raffertycapitalmarkets.com,Azure Maps,
663850,United States,Fairfield,CT,Connecticut,06807-1602,"455 Valley Road, Cos Cob, CT 06807",Cos Cob,Greenwich,Cos Cob,,41.06783,-73.57999,,Aquarion Water,,Azure Maps,
373850,United States,Fairfield,CT,Connecticut,06905-3988,"2200 Bedford Street, Stamford, CT 06905",Stamford,Stamford,Ridgeway-Bulls Head,,41.06854,-73.54463,,Kinnikinnick Foods,consumer.kinnikinnick.com/,Azure Maps,
383850,United States,Fairfield,CT,Connecticut,06905-3988,"2200 Bedford Street, Stamford, CT 06905",Stamford,Stamford,Ridgeway-Bulls Head,,41.06854,-73.54463,,Super Stop & Shop,stores.stopandshop.com/ct/stamford/2200-bedford-street,Azure Maps,
6210,United States,Fairfield,CT,Connecticut,06820-4121,"148 Heights Road, Darien, CT 06820",Darien,Darien,,,41.06909,-73.49385,,Kinnikinnick Foods,consumer.kinnikinnick.com/,Azure Maps,
533850,United States,Fairfield,CT,Connecticut,06906-1825,"501 Glenbrook Road, Stamford, CT 06906",Stamford,Stamford,Glenbrook-Belltown,,41.07058,-73.52043,,Duke Premier Market,,Azure Maps,
5510,United States,Fairfield,CT,Connecticut,06820-4423,"150 Ledge Road, Darien, CT 06820",Darien,Darien,,,41.07266,-73.47603,,Whole Foods Market,www.wholefoodsmarket.com/stores/darien,Azure Maps,
5410,United States,Fairfield,CT,Connecticut,06906-1313,"495 Hope Street, Stamford, CT 06906",Stamford,Stamford,Glenbrook-Belltown,,41.07644,-73.52287,,Grade A Market Of Hope Street,https://shop.shoprite.com/store/4019645,Azure Maps,
5310,United States,Fairfield,CT,Connecticut,06906-1313,"495 Hope Street, Stamford, CT 06906",Stamford,Stamford,Glenbrook-Belltown,,41.07644,-73.52287,,Grand Union,grandunioncompany.com/home,Azure Maps,
5110,United States,Fairfield,CT,Connecticut,06906-1400,"70 Research Drive, Stamford, CT 06906",Stamford,Stamford,Springdale,,41.07678,-73.51865,,Ionian Food Imp,,Azure Maps,
5010,United States,Fairfield,CT,Connecticut,06906-1400,"70 Research Drive, Stamford, CT 06906",Stamford,Stamford,Springdale,,41.07678,-73.51865,,One Root Foods,,Azure Maps,
4710,United States,Fairfield,CT,Connecticut,,"25 Old Kings Hwy N, Darien, CT 06820",Darien,Darien,,,41.07838,-73.4663,,Gloval Pet Foods,,Azure Maps,
4810,United States,Fairfield,CT,Connecticut,,"25 Old Kings Hwy N, Darien, CT 06820",Darien,Darien,,,41.07838,-73.4663,,Stop & Shop,www.stopandshop.com,Azure Maps,
583850,United States,Fairfield,CT,Connecticut,06905-3000,"225 High Ridge Road, Stamford, CT 06905",Stamford,Stamford,Ridgeway-Bulls Head,,41.07876,-73.55002,,Nestle Waters North America,,Azure Maps,
5311533,United States,Fairfield,CT,Connecticut,06854-4704,"11 Dock Road, Norwalk, CT 06854",Norwalk,Norwalk,,,41.08139,-73.41742,,Felicia Foods,,Azure Maps,
4210,United States,Fairfield,CT,Connecticut,06820-4730,"70 Old Kings Highway North, Darien, CT 06820",Darien,Darien,,,41.08183,-73.46388,,Lewis Foods,,Azure Maps,
5111533,United States,Fairfield,CT,Connecticut,06854-4729,"155 Woodward Avenue, Norwalk, CT 06854",Norwalk,Norwalk,,,41.08306,-73.41545,,Ola Foods,www.olafoods.com,Azure Maps,
3610,United States,Fairfield,CT,Connecticut,06820-3605,"440 Post Road, Darien, CT 06820",Darien,Darien,,,41.08494,-73.46232,,Trader Joe's,locations.traderjoes.com/ct/darien/522/,Azure Maps,
4811533,United States,Fairfield,CT,Connecticut,06854-4531,"129 Woodward Avenue, Norwalk, CT 06854",Norwalk,Norwalk,,,41.08651,-73.41432,,Ec Scott Group,www.ecscottgroup.com/,Azure Maps,
4911533,United States,Fairfield,CT,Connecticut,06855-2700,"99 Calf Pasture Beach Road, Norwalk, CT 06855",Norwalk,Norwalk,,,41.08716,-73.39361,,Bulls Head Market,,Azure Maps,
4311533,United States,Fairfield,CT,Connecticut,06854-4433,"160 South Main Street, Norwalk, CT 06854",Norwalk,Norwalk,,,41.08956,-73.41981,,Crespo Spanish-American,,Azure Maps,
4611533,United States,Fairfield,CT,Connecticut,06854-3502,"33 Bouton Street, Norwalk, CT 06854",Norwalk,Norwalk,,,41.09105,-73.42713,,El Mercabito,,Azure Maps,
3411533,United States,Fairfield,CT,Connecticut,06854-3742,"42 Woodward Avenue, Norwalk, CT 06854",Norwalk,Norwalk,,,41.09179,-73.41717,,Los Luceros Family Grocery,,Azure Maps,
3311533,United States,Fairfield,CT,Connecticut,06854-3742,"42 Woodward Avenue, Norwalk, CT 06854",Norwalk,Norwalk,,,41.09179,-73.41717,,Superior Supermarket Groc & Vegtbls,,Azure Maps,
3711533,United States,Fairfield,CT,Connecticut,06854-3608,"133 South Main Street, Norwalk, CT 06854",Norwalk,Norwalk,,,41.09192,-73.41916,,Alexa Grocery,,Azure Maps,
3811533,United States,Fairfield,CT,Connecticut,06854-2965,"59 Ely Avenue, Norwalk, CT 06854",Norwalk,Norwalk,,,41.09313,-73.42393,,Carniceria La Mexicana,,Azure Maps,
3611533,United States,Fairfield,CT,Connecticut,06854-2939,"45 Ely Avenue, Norwalk, CT 06854",Norwalk,Norwalk,,,41.09335,-73.42375,,Burden Brothers Grocery,,Azure Maps,
2811533,United States,Fairfield,CT,Connecticut,06854-3110,"112 South Main Street, Norwalk, CT 06854",Norwalk,Norwalk,,,41.09367,-73.41909,,El Samaritano Grocery & Deli,,Azure Maps,
1210,United States,Fairfield,CT,Connecticut,06907-1824,"1085 Hope Street, Stamford, CT 06907",Stamford,Stamford,Springdale,,41.09555,-73.5193,,Hope Street Mini Mart,,Azure Maps,
2110,United States,Fairfield,CT,Connecticut,06854-1616,"680 Connecticut Avenue, Norwalk, CT 06854",Norwalk,Norwalk,,,41.09563,-73.44965,,Walmart,www.walmart.com/store/3547/norwalk-ct/details,Azure Maps,
1110,United States,Fairfield,CT,Connecticut,06907-1824,"1091 Hope Street, Stamford, CT 06907",Stamford,Stamford,Springdale,,41.09574,-73.51942,,Pine Hill Grocery Store,,Azure Maps,
2511533,United States,Fairfield,CT,Connecticut,06854-3124,"18 Monroe Street, Norwalk, CT 06854",Norwalk,Norwalk,,,41.09662,-73.42,,La Placita Food Market,,Azure Maps,
2311533,United States,Fairfield,CT,Connecticut,06854-2925,"58 South Main Street, Norwalk, CT 06854",Norwalk,Norwalk,,,41.09747,-73.41891,,South Main Grocery & Deli,,Azure Maps,
2310,United States,Fairfield,CT,Connecticut,06854-1710,"493 Connecticut Avenue, Norwalk, CT 06854",Norwalk,Norwalk,,,41.09863,-73.44332,,Connecticut Ave Deli & Grocery,,Azure Maps,
2211533,United States,Fairfield,CT,Connecticut,06854-2704,"7 Washington Street, Norwalk, CT 06854",Norwalk,Norwalk,,,41.09935,-73.42187,,C-Town,locations.ctownsupermarkets.com/ct-south-norwalk-pu41_060,Azure Maps,
2210,United States,Fairfield,CT,Connecticut,06854-1805,"385 Connecticut Avenue, Norwalk, CT 06854",Norwalk,Norwalk,,,41.10037,-73.44081,,Stop & Shop Pharmacy,pharmacy.stopandshop.com/ct/norwalk/385-connecticut-avenue,Azure Maps,
1910,United States,Fairfield,CT,Connecticut,06854-1801,"360 Connecticut Avenue, Norwalk, CT 06854",Norwalk,Norwalk,,,41.10093,-73.44011,,ShopRite Of Norwalk,www.shoprite.com/,Azure Maps,
2411533,United States,Fairfield,CT,Connecticut,06854-2021,"72 Taylor Avenue, Norwalk, CT 06854",Norwalk,Norwalk,,,41.10142,-73.42923,,Family Market,,Azure Maps,
2510,United States,Fairfield,CT,Connecticut,,"Connecticut Ave, Norwalk, CT 06854",Norwalk,Norwalk,,,41.10248,-73.43594,,ShopRite Of Norwalk,www.shoprite.com,Azure Maps,
1711533,United States,Fairfield,CT,Connecticut,06854-2208,"23 West Avenue, Norwalk, CT 06854",Norwalk,Norwalk,,,41.1029,-73.4198,,Norwalk Marketplace,,Azure Maps,
2010,United States,Fairfield,CT,Connecticut,06854-1821,"330 Connecticut Avenue, Norwalk, CT 06854",Norwalk,Norwalk,,,41.10355,-73.43707,,Patel Brothers,www.patelbros.com,Azure Maps,
1911533,United States,Fairfield,CT,Connecticut,06854-2039,"79 Cedar Street, Norwalk, CT 06854",Norwalk,Norwalk,,,41.1042,-73.42732,,Tropical Groceries,,Azure Maps,
2410,United States,Fairfield,CT,Connecticut,06854-1912,"155 West Cedar Street, Norwalk, CT 06854",Norwalk,Norwalk,,,41.1044,-73.43478,,West Cedar Grocery,,Azure Maps,
1211533,United States,Fairfield,CT,Connecticut,06855-1333,"12 Fitch Street, Norwalk, CT 06855",Norwalk,Norwalk,,,41.10543,-73.40298,,Rojas International Corporation,,Azure Maps,
1410,United States,Fairfield,CT,Connecticut,06905-1213,"1041 High Ridge Road, Stamford, CT 06905",Stamford,Stamford,Turn of River-Newfield,,41.10698,-73.54791,,Trader Joe's,locations.traderjoes.com/ct/stamford/529/,Azure Maps,
1511533,United States,Fairfield,CT,Connecticut,06850-3530,"60 Connecticut Avenue, Norwalk, CT 06850",Norwalk,Norwalk,,,41.1073,-73.42268,,Tim's Market,,Azure Maps,
1310,United States,Fairfield,CT,Connecticut,06905-1213,"1055 High Ridge Road, Stamford, CT 06905",Stamford,Stamford,Turn of River-Newfield,,41.10856,-73.54745,,Kinnikinnick Foods,consumer.kinnikinnick.com/,Azure Maps,
1011533,United States,Fairfield,CT,Connecticut,06850-4202,"24 Butler Street, Norwalk, CT 06850",Norwalk,Norwalk,,,41.1103,-73.41406,,Gus Sclafani,www.gussclafanicorp.com,Azure Maps,
1311533,United States,Fairfield,CT,Connecticut,06850-3532,"57 Stevens St, Norwalk, CT 06850",Norwalk,Norwalk,,,41.11039,-73.42497,,Hill Confectionery,,Azure Maps,
1010,United States,Fairfield,CT,Connecticut,06905-1214,"1201 High Ridge Road, Stamford, CT 06905",Stamford,Stamford,Turn of River-Newfield,,41.11043,-73.54683,,ACME Markets,local.acmemarkets.com/ct/stamford/1201-high-ridge-rd.html,Azure Maps,
1111533,United States,Fairfield,CT,Connecticut,06850-4237,"6 Butler Street, Norwalk, CT 06850",Norwalk,Norwalk,,,41.11053,-73.41691,,Market Bull S,,Azure Maps,
4110,United States,Fairfield,CT,Connecticut,06850-4007,"530 West Avenue, Norwalk, CT 06850",Norwalk,Norwalk,,,41.11242,-73.41613,,J & M Variety Grocery,,Azure Maps,
3910,United States,Fairfield,CT,Connecticut,06850-3301,"717 West Avenue, Norwalk, CT 06850",Norwalk,Norwalk,,,41.11611,-73.41488,,City Market Norwalk,,Azure Maps,
3810,United States,Fairfield,CT,Connecticut,06850-3301,"717 West Avenue, Norwalk, CT 06850",Norwalk,Norwalk,,,41.11611,-73.41488,,Key Food,www.keyfood.com/,Azure Maps,
3710,United States,Fairfield,CT,Connecticut,06850-3301,"717 West Avenue, Norwalk, CT 06850",Norwalk,Norwalk,,,41.11611,-73.41488,,Pioneer Supermarket,www.pioneersupermarkets.com/,Azure Maps,
1411533,United States,Fairfield,CT,Connecticut,06850-3213,"47 Grandview Avenue, Norwalk, CT 06850",Norwalk,Norwalk,,,41.11681,-73.42756,,Grandview Finest Grocery,www.cafepress.com/ojoplusimi,Azure Maps,
11533,United States,Fairfield,CT,Connecticut,06851-4721,"36 Main Street, Norwalk, CT 06851",Norwalk,Norwalk,,,41.11943,-73.41276,,Kinnikinnick Foods,consumer.kinnikinnick.com/,Azure Maps,
111533,United States,Fairfield,CT,Connecticut,06851-4703,"61 Main Street, Norwalk, CT 06851",Norwalk,Norwalk,,,41.12026,-73.41299,,Main Street Grocery,,Azure Maps,
211533,United States,Fairfield,CT,Connecticut,06851-4703,"71 Main Street, Norwalk, CT 06851",Norwalk,Norwalk,,,41.12048,-73.41304,,Maximo Deli & Grocery,,Azure Maps,
3110,United States,Fairfield,CT,Connecticut,06851-4703,"75 Main Street, Norwalk, CT 06851",Norwalk,Norwalk,,,41.12114,-73.41322,,Nicholas Roberts Fine Foods,,Azure Maps,
4011533,United States,Fairfield,CT,Connecticut,06880-5916,"580 Riverside Avenue, Westport, CT 06880",Westport,Westport,,,41.12134,-73.37036,,CM Gourmet Market,,Azure Maps,
311533,United States,Fairfield,CT,Connecticut,,"100 Westport Avenue, Norwalk, CT 06851",Norwalk,Norwalk,,,41.12151,-73.40494,,Stew Leonard's,www.StewLeonards.com,Azure Maps,
4211533,United States,Fairfield,CT,Connecticut,06880-5703,"544 Riverside Avenue, Westport, CT 06880",Westport,Westport,,,41.12257,-73.37043,,Municipal Market Advisors,www.mma-research.com,Azure Maps,
2710,United States,Fairfield,CT,Connecticut,06851-4617,"112 Main Street, Norwalk, CT 06851",Norwalk,Norwalk,,,41.12303,-73.41564,,Krysshanna Krysshanna,,Azure Maps,
3911533,United States,Fairfield,CT,Connecticut,06880-5700,"20 Saugatuck Avenue, Westport, CT 06880",Westport,Westport,,,41.12389,-73.37247,,Fast Stop Food Mart,,Azure Maps,
1611533,United States,Fairfield,CT,Connecticut,,"444 Westport Avenue, Norwalk, CT 06851",Norwalk,Norwalk,,,41.12654,-73.38888,,Stew Leonard's,www.stewleonards.com,Azure Maps,
1811533,United States,Fairfield,CT,Connecticut,06851-4424,"480 Westport Avenue, Norwalk, CT 06851",Norwalk,Norwalk,,,41.12707,-73.38663,,AP Foods,,Azure Maps,
2111533,United States,Fairfield,CT,Connecticut,06851-4411,"517 Westport Avenue, Norwalk, CT 06851",Norwalk,Norwalk,,,41.12738,-73.38523,,Gateway Country,,Azure Maps,
2611533,United States,Fairfield,CT,Connecticut,06880-4706,"399 Post Road West, Westport, CT 06880",Westport,Westport,,,41.12858,-73.38125,,Whole Foods Market,www.wholefoodsmarket.com/stores/westport,Azure Maps,
2911533,United States,Fairfield,CT,Connecticut,06880-4701,"361 Post Road West, Westport, CT 06880",Westport,Westport,,,41.12968,-73.37848,,As Fine Foods,,Azure Maps,
2011533,United States,Fairfield,CT,Connecticut,,"26 Broad Street, Norwalk, CT 06851",Norwalk,Norwalk,,,41.13101,-73.42725,,Alex Food Mart,,Azure Maps,
7911533,United States,Fairfield,CT,Connecticut,06880-5683,"1790 Post Road East, Westport, CT 06880",Westport,Westport,,,41.13835,-73.30227,,Kinnikinnick Foods,consumer.kinnikinnick.com/,Azure Maps,
8011533,United States,Fairfield,CT,Connecticut,06880-5683,"1790 Post Road East, Westport, CT 06880",Westport,Westport,,,41.13835,-73.30227,,Super Stop & Shop,stores.stopandshop.com/ct/westport/1790-post-road-east,Azure Maps,
8311533,United States,Fairfield,CT,Connecticut,06890-1307,"3300 Post Road, Southport, CT 06890",Southport,Fairfield,,,41.13844,-73.2903,,Quick Steps,,Azure Maps,
6511533,United States,Fairfield,CT,Connecticut,06880-4546,"605 Post Road East, Westport, CT 06880",Westport,Westport,,,41.13866,-73.34464,,The Fresh Market,t.co/WtmIyKGlID,Azure Maps,
7111533,United States,Fairfield,CT,Connecticut,06880-5300,"1046 Post Road East, Westport, CT 06880",Westport,Westport,,,41.13891,-73.32874,,Taylors Floral Arts & Gift,,Azure Maps,
6111533,United States,Fairfield,CT,Connecticut,06880-4402,"400 Post Road East, Westport, CT 06880",Westport,Westport,,,41.14016,-73.35178,,Trader Joe's,locations.traderjoes.com/ct/westport/521/,Azure Maps,
3111533,United States,Fairfield,CT,Connecticut,,"380 Main Avenue, Norwalk, CT 06851",Norwalk,Norwalk,,,41.14132,-73.42578,,Kinnikinnick Foods,consumer.kinnikinnick.com/,Azure Maps,
3211533,United States,Fairfield,CT,Connecticut,,"380 Main Avenue, Norwalk, CT 06851",Norwalk,Norwalk,,,41.14132,-73.42578,,Super Stop & Shop,stores.stopandshop.com/ct/norwalk/380-main-avenue,Azure Maps,
5711533,United States,Fairfield,CT,Connecticut,06880-3402,"49 Main Street, Westport, CT 06880",Westport,Westport,,,41.14207,-73.36159,,Lucky Brand,stores.luckybrand.com/lucky-brand-2aa6dbdf7c7d,Azure Maps,
4411533,United States,Fairfield,CT,Connecticut,06850-1202,"20 Glover Avenue, Norwalk, CT 06850",Norwalk,Norwalk,,,41.14343,-73.42742,,E N R Services,,Azure Maps,
5811533,United States,Fairfield,CT,Connecticut,06880-3201,"12 Avery Place, Westport, CT 06880",Westport,Westport,,,41.14423,-73.36122,,Quorn Foods,,Azure Maps,
110,United States,Fairfield,CT,Connecticut,06840-5409,"75 Pine Street, New Canaan, CT 06840",New Canaan,New Canaan,,,41.14441,-73.49747,,Pine St Concession,,Azure Maps,
6011533,United States,Fairfield,CT,Connecticut,06880-3206,"225 Main Street, Westport, CT 06880",Westport,Westport,,,41.14542,-73.36134,,Bmo Capital Market,Bmocm.com,Azure Maps,
210,United States,Fairfield,CT,Connecticut,06840-5313,"280 Elm Street, New Canaan, CT 06840",New Canaan,New Canaan,,,41.14553,-73.50051,,ACME Markets,local.acmemarkets.com/ct/new-canaan/288-elm-st.html,Azure Maps,
10,United States,Fairfield,CT,Connecticut,06840-5505,"2 Morse Court, New Canaan, CT 06840",New Canaan,New Canaan,,,41.14651,-73.49311,,Kinnikinnick Foods,consumer.kinnikinnick.com/,Azure Maps,
4711533,United States,Fairfield,CT,Connecticut,06851-2537,"343 Newtown Avenue, Norwalk, CT 06851",Norwalk,Norwalk,,,41.14657,-73.39432,,Cranbury Market IGA,www.cranburymarket.iga.com,Azure Maps,
8611533,United States,Fairfield,CT,Connecticut,06890-1292,"355 Acorn Lane, Southport, CT 06890",Southport,Fairfield,,,41.14758,-73.2903,,Connecticut Capitol Markets,,Azure Maps,
7011533,United States,Fairfield,CT,Connecticut,06880-3702,"46 Colony Road, Westport, CT 06880",Westport,Westport,,,41.14878,-73.33549,,Free Line Organic,,Azure Maps,
5211533,United States,Fairfield,CT,Connecticut,06851-1027,"101 Merritt 7, Norwalk, CT 06851",Norwalk,Norwalk,,,41.14978,-73.42588,,Hu Foods,,Azure Maps,
410,United States,Fairfield,CT,Connecticut,06850-1128,"25 Old Kings Highway, Norwalk, CT 06850",Norwalk,Norwalk,,,41.15192,-73.44568,,Gloval Pet Foods,,Azure Maps,
5511533,United States,Fairfield,CT,Connecticut,06880-1833,"73 Partrick Road, Westport, CT 06880",Westport,Westport,,,41.15243,-73.38448,,Stop & Shop,www.stopandshop.com,Azure Maps,
310,United States,Fairfield,CT,Connecticut,06840-4339,"941 Silvermine Road, New Canaan, CT 06840",New Canaan,New Canaan,,,41.15354,-73.45199,,Nito,www.rvminc.com,Azure Maps,
1810,United States,Fairfield,CT,Connecticut,06851-1126,"650 Main Avenue, Norwalk, CT 06851",Norwalk,Norwalk,,,41.15902,-73.41956,,Walmart,www.walmart.com/store/2954/norwalk-ct/details,Azure Maps,
6311533,United States,Fairfield,CT,Connecticut,06880-1909,"268 Wilton Road, Westport, CT 06880",Westport,Westport,,,41.15962,-73.37498,,Corolle,,Azure Maps,
5719255,United States,Fairfield,CT,Connecticut,06604-5617,"5 Park Avenue, Bridgeport, CT 06604",Bridgeport,Bridgeport,,,41.16291,-73.18951,,Park Ave Super Market,,Azure Maps,
9819255,United States,Fairfield,CT,Connecticut,06605-2410,"460 Bird Street, Bridgeport, CT 06605",Bridgeport,Bridgeport,,,41.16293,-73.21481,,Mini Rite,,Azure Maps,
3919255,United States,Fairfield,CT,Connecticut,06604-5351,"204 Walnut Street, Bridgeport, CT 06604",Bridgeport,Bridgeport,,,41.16611,-73.19714,,Walnut Grocery,,Azure Maps,
2719255,United States,Fairfield,CT,Connecticut,06604-5847,"156 Columbia Street, Bridgeport, CT 06604",Bridgeport,Bridgeport,,,41.16746,-73.19585,,Laziza Market,,Azure Maps,
2419255,United States,Fairfield,CT,Connecticut,06604-5449,"375 Park Avenue, Bridgeport, CT 06604",Bridgeport,Bridgeport,,,41.1676,-73.19306,,Park Ave Super Market,,Azure Maps,
9719255,United States,Fairfield,CT,Connecticut,,"1859 Commerce Drive, Bridgeport, CT 06605",Bridgeport,Bridgeport,,,41.16816,-73.21769,,Bresky Henry & Sons,,Azure Maps,
1319255,United States,Fairfield,CT,Connecticut,06604-5522,"321 Main Street, Bridgeport, CT 06604",Bridgeport,Bridgeport,,,41.16904,-73.18647,,Captains Food Mart,,Azure Maps,
4919255,United States,Fairfield,CT,Connecticut,06605-1708,"1218 State Street, Bridgeport, CT 06605",Bridgeport,Bridgeport,,,41.17112,-73.20694,,Bangla Bazar Halal Meat,,Azure Maps,
4719255,United States,Fairfield,CT,Connecticut,06605-1709,"1226 State Street, Bridgeport, CT 06605",Bridgeport,Bridgeport,,,41.17116,-73.2068,,State Street Supermarket,www.upperstatestreet.org,Azure Maps,
1419255,United States,Fairfield,CT,Connecticut,06605-1240,"127 Lewis Street, Bridgeport, CT 06605",Bridgeport,Bridgeport,,,41.17147,-73.1986,,Conchitas Grocery,,Azure Maps,
4419255,United States,Fairfield,CT,Connecticut,06605-1507,"1160 State Street, Bridgeport, CT 06605",Bridgeport,Bridgeport,,,41.17148,-73.20581,,De Castillo Grocery,,Azure Maps,
5819255,United States,Fairfield,CT,Connecticut,06607-2205,"239 Newfield Avenue, Bridgeport, CT 06607",Bridgeport,Bridgeport,East Side,,41.17224,-73.16908,,Garcia Market,,Azure Maps,
2519255,United States,Fairfield,CT,Connecticut,06605-1504,"965 State Street, Bridgeport, CT 06605",Bridgeport,Bridgeport,,,41.17247,-73.2028,,Sabbir Supermarket,,Azure Maps,
6219255,United States,Fairfield,CT,Connecticut,06605-1928,"1437 Fairfield Avenue, Bridgeport, CT 06605",Bridgeport,Bridgeport,,,41.17258,-73.21079,,Laylas Market,,Azure Maps,
1719255,United States,Fairfield,CT,Connecticut,06604-3723,"875 State Street, Bridgeport, CT 06604",Bridgeport,Bridgeport,,,41.17305,-73.20088,,Allison Market,,Azure Maps,
1819255,United States,Fairfield,CT,Connecticut,06604-3723,"875 State Street, Bridgeport, CT 06604",Bridgeport,Bridgeport,,,41.17305,-73.20088,,Mike's Market,,Azure Maps,
9119255,United States,Fairfield,CT,Connecticut,06605-1638,"999 Maplewood Avenue, Bridgeport, CT 06605",Bridgeport,Bridgeport,,,41.17332,-73.21693,,La Parada Market,,Azure Maps,
5219255,United States,Fairfield,CT,Connecticut,06605-1742,"387 Clinton Avenue, Bridgeport, CT 06605",Bridgeport,Bridgeport,,,41.17333,-73.20847,,Fairfield,www.fairfield.edu,Azure Maps,
1019255,United States,Fairfield,CT,Connecticut,06604-3701,"856 Fairfield Avenue, Bridgeport, CT 06604",Bridgeport,Bridgeport,,,41.17451,-73.20105,,Sk Grocery,,Azure Maps,
8819255,United States,Fairfield,CT,Connecticut,06605-1610,"787 Beechwood Avenue, Bridgeport, CT 06605",Bridgeport,Bridgeport,,,41.1752,-73.21703,,DMB,,Azure Maps,
8719255,United States,Fairfield,CT,Connecticut,06605-1610,"787 Beechwood Avenue, Bridgeport, CT 06605",Bridgeport,Bridgeport,,,41.1752,-73.21703,,Junco Market,,Azure Maps,
6919255,United States,Fairfield,CT,Connecticut,06605-1603,"730 Maplewood Avenue, Bridgeport, CT 06605",Bridgeport,Bridgeport,,,41.17564,-73.21326,,DR Asian Grocery,www.drasiangrocery.com,Azure Maps,
419255,United States,Fairfield,CT,Connecticut,06604-3900,"609 Fairfield Avenue, Bridgeport, CT 06604",Bridgeport,Bridgeport,Downtown Bridgeport,,41.17578,-73.19712,,El MISMO Primo,,Azure Maps,
7819255,United States,Fairfield,CT,Connecticut,06604-2307,"648 Beechwood Avenue, Bridgeport, CT 06604",Bridgeport,Bridgeport,,,41.17646,-73.21503,,Beachwood Market,,Azure Maps,
7919255,United States,Fairfield,CT,Connecticut,06604-2307,"648 Beechwood Avenue, Bridgeport, CT 06604",Bridgeport,Bridgeport,,,41.17646,-73.21503,,Beechwood Grocery Store,,Azure Maps,
6019255,United States,Fairfield,CT,Connecticut,06607-1723,"634 Newfield Avenue, Bridgeport, CT 06607",Bridgeport,Bridgeport,East End,,41.17726,-73.16719,,Francy & Lily Mini MA,,Azure Maps,
2819255,United States,Fairfield,CT,Connecticut,,"258 Wood Avenue, Bridgeport, CT 06605",Bridgeport,Bridgeport,,,41.1774,-73.20594,,West End Mini Mart,,Azure Maps,
2019255,United States,Fairfield,CT,Connecticut,06605-1046,"129 Wood Avenue, Bridgeport, CT 06605",Bridgeport,Bridgeport,,,41.17748,-73.20361,,Adan Market,,Azure Maps,
1919255,United States,Fairfield,CT,Connecticut,06605-1046,"129 Wood Avenue, Bridgeport, CT 06605",Bridgeport,Bridgeport,,,41.17748,-73.20361,,J & M Grocery,,Azure Maps,
819255,United States,Fairfield,CT,Connecticut,06604-3413,"1212 Park Avenue, Bridgeport, CT 06604",Bridgeport,Bridgeport,Hollow,,41.17754,-73.20081,,A & D Market,,Azure Maps,
19255,United States,Fairfield,CT,Connecticut,06604-4313,"966 Main Street, Bridgeport, CT 06604",Bridgeport,Bridgeport,Downtown Bridgeport,,41.1777,-73.18901,,Downtown Corner,www.ctpost.com,Azure Maps,
3819255,United States,Fairfield,CT,Connecticut,06605-1434,"378 Wood Avenue, Bridgeport, CT 06605",Bridgeport,Bridgeport,,,41.17815,-73.20757,,Jz's Grocery & Deli,,Azure Maps,
7719255,United States,Fairfield,CT,Connecticut,06607-1419,"1377 Stratford Avenue, Bridgeport, CT 06607",Bridgeport,Bridgeport,East End,,41.17909,-73.16346,,Mercerves Grocery,,Azure Maps,
1519255,United States,Fairfield,CT,Connecticut,06604-3053,"1411 Park Avenue, Bridgeport, CT 06604",Bridgeport,Bridgeport,,,41.17952,-73.20307,,West Side Market,,Azure Maps,
3219255,United States,Fairfield,CT,Connecticut,06605-1304,"252 Maplewood Avenue, Bridgeport, CT 06605",Bridgeport,Bridgeport,,,41.17981,-73.20661,,J & J Deli & Grocery,,Azure Maps,
8919255,United States,Fairfield,CT,Connecticut,06607-1427,"1515 Stratford Avenue, Bridgeport, CT 06607",Bridgeport,Bridgeport,East End,,41.17987,-73.16129,,Lees Market,,Azure Maps,
519255,United States,Fairfield,CT,Connecticut,06608-2603,"420 Pembroke Street, Bridgeport, CT 06608",Bridgeport,Bridgeport,East Side,,41.18,-73.17923,,Pueblo Supermarket,,Azure Maps,
9319255,United States,Fairfield,CT,Connecticut,06607-1400,"1611 Stratford Avenue, Bridgeport, CT 06607",Bridgeport,Bridgeport,East End,,41.18046,-73.15964,,Convenience Brand Grocery,,Azure Maps,
7119255,United States,Fairfield,CT,Connecticut,06607-1134,"693 Connecticut Avenue, Bridgeport, CT 06607",Bridgeport,Bridgeport,East End,,41.18068,-73.16469,,Sunshine Food Market,,Azure Maps,
7219255,United States,Fairfield,CT,Connecticut,06607-1134,"693 Connecticut Avenue, Bridgeport, CT 06607",Bridgeport,Bridgeport,East End,,41.18068,-73.16469,,Torres Variety Grocery,,Azure Maps,
219255,United States,Fairfield,CT,Connecticut,06608-2340,"464 East Main Street, Bridgeport, CT 06608",Bridgeport,Bridgeport,East Side,,41.18096,-73.18113,,Caguas Grocery,,Azure Maps,
319255,United States,Fairfield,CT,Connecticut,06608-2300,"505 East Main Street, Bridgeport, CT 06608",Bridgeport,Bridgeport,East Side,,41.18152,-73.1811,,Canomania,,Azure Maps,
8519255,United States,Fairfield,CT,Connecticut,06607-1118,"842 Connecticut Avenue, Bridgeport, CT 06607",Bridgeport,Bridgeport,East End,,41.18154,-73.16244,,Connecticut Food Market,,Azure Maps,
4519255,United States,Fairfield,CT,Connecticut,06607-1030,"126 Deacon Street, Bridgeport, CT 06607",Bridgeport,Bridgeport,East End,,41.18206,-73.17002,,Family Groceries,,Azure Maps,
9730712,United States,Fairfield,CT,Connecticut,06825-3219,"2258 Black Rock Turnpike, Fairfield, CT 06825",Fairfield,Fairfield,,,41.18241,-73.25374,,Trader Joe's,locations.traderjoes.com/ct/fairfield/523/,Azure Maps,
3319255,United States,Fairfield,CT,Connecticut,06604-2519,"1683 Park Avenue, Bridgeport, CT 06604",Bridgeport,Bridgeport,,,41.18253,-73.20613,,African British & Caribbean Market,,Azure Maps,
3419255,United States,Fairfield,CT,Connecticut,06604-2519,"1691 Park Avenue, Bridgeport, CT 06604",Bridgeport,Bridgeport,,,41.18261,-73.2062,,Mexicanito El I,,Azure Maps,
1219255,United States,Fairfield,CT,Connecticut,06604-2620,"1012 Grand Street, Bridgeport, CT 06604",Bridgeport,Bridgeport,Hollow,,41.18267,-73.20242,,K & J Grocery Store,,Azure Maps,
119255,United States,Fairfield,CT,Connecticut,06604-3504,"27 Highland Avenue, Bridgeport, CT 06604",Bridgeport,Bridgeport,Hollow,,41.18316,-73.1947,,Larenza Market,,Azure Maps,
7519255,United States,Fairfield,CT,Connecticut,06604-2111,"256 Wade Street, Bridgeport, CT 06604",Bridgeport,Bridgeport,,,41.1843,-73.21341,,The Future Grocery,,Azure Maps,
619255,United States,Fairfield,CT,Connecticut,06604-3107,"533 Harral Avenue, Bridgeport, CT 06604",Bridgeport,Bridgeport,Hollow,,41.18455,-73.19704,,Junco Market,,Azure Maps,
1119255,United States,Fairfield,CT,Connecticut,06604-3122,"351 Lexington Avenue, Bridgeport, CT 06604",Bridgeport,Bridgeport,Hollow,,41.18485,-73.20032,,Sapiaos Grocery Store,,Azure Maps,
8019255,United States,Fairfield,CT,Connecticut,06610-2809,"2 Mill Hill Avenue, Bridgeport, CT 06610",Bridgeport,Bridgeport,,,41.1866,-73.1656,,Eddies Market,,Azure Maps,
8419255,United States,Fairfield,CT,Connecticut,06610-2825,"1316 Barnum Avenue, Bridgeport, CT 06610",Bridgeport,Bridgeport,East End,,41.18661,-73.16476,,Wades Dairy,,Azure Maps,
6823029,United States,Fairfield,CT,Connecticut,06604-3200,"235 Madison Avenue, Bridgeport, CT 06604",Bridgeport,Bridgeport,Hollow,,41.18705,-73.19726,,Maribel Grocery,,Azure Maps,
1510,United States,Westchester,NY,New York,10576-2121,"6 Lower Trinity Pass Road, Pound Ridge, NY 10576",Pound Ridge,Pound Ridge,,,41.1871,-73.54967,,Healing Home Foods,www.healinghomefoods.com/,Azure Maps,
719255,United States,Fairfield,CT,Connecticut,06608-2104,"150 Barnum Avenue, Bridgeport, CT 06608",Bridgeport,Bridgeport,East Side,,41.18738,-73.18608,Meijer,Redbox Meijer,www.redbox.com,Azure Maps,
2219255,United States,Fairfield,CT,Connecticut,06604-3219,"595 Grand Street, Bridgeport, CT 06604",Bridgeport,Bridgeport,Hollow,,41.18739,-73.19956,,G&E Supermarket,hockersmarkets.com/,Azure Maps,
1619255,United States,Fairfield,CT,Connecticut,06608-1914,"942 East Main Street, Bridgeport, CT 06608",Bridgeport,Bridgeport,East Side,,41.18756,-73.18078,,P & M Grocery,,Azure Maps,
2619255,United States,Fairfield,CT,Connecticut,06604-2713,"1217 North Avenue, Bridgeport, CT 06604",Bridgeport,Bridgeport,Hollow,,41.18872,-73.2003,,Zaachila Grocery Store,,Azure Maps,
6523029,United States,Fairfield,CT,Connecticut,06604-1622,"1587 Capitol Avenue, Bridgeport, CT 06604",Bridgeport,Bridgeport,,,41.18874,-73.21712,,Family Market,,Azure Maps,
6119255,United States,Fairfield,CT,Connecticut,06610-2728,"1896 Seaview Avenue, Bridgeport, CT 06610",Bridgeport,Bridgeport,,,41.18877,-73.1702,,Corner Market Variety,,Azure Maps,
2319255,United States,Fairfield,CT,Connecticut,06608-1915,"1050 East Main Street, Bridgeport, CT 06608",Bridgeport,Bridgeport,East Side,,41.18909,-73.1807,,Compare Foods Supermarket,www.comparesupermarkets.com,Azure Maps,
2119255,United States,Fairfield,CT,Connecticut,06604-3212,"355 Grand Street, Bridgeport, CT 06604",Bridgeport,Bridgeport,Hollow,,41.18925,-73.1961,,Chaves Grocery & Gifts,,Azure Maps,
8923029,United States,Fairfield,CT,Connecticut,06610-3019,"1796 Barnum Avenue, Bridgeport, CT 06610",Bridgeport,Bridgeport,East End,,41.18927,-73.15712,,I & I Food Store,,Azure Maps,
3619255,United States,Fairfield,CT,Connecticut,06608-1720,"304 Brooks Street, Bridgeport, CT 06608",Bridgeport,Bridgeport,East Side,,41.19027,-73.17955,,Gurabo Grocery,,Azure Maps,
3019255,United States,Fairfield,CT,Connecticut,06608-1620,"1141 East Main Street, Bridgeport, CT 06608",Bridgeport,Bridgeport,East Side,,41.19031,-73.18063,,Jamal Market,,Azure Maps,
3519255,United States,Fairfield,CT,Connecticut,06608-1620,"1173 East Main Street, Bridgeport, CT 06608",Bridgeport,Bridgeport,East Side,,41.19072,-73.18061,,Afro-American Variety Store,,Azure Maps,
2919255,United States,Fairfield,CT,Connecticut,06604-2721,"2018 Main Street, Bridgeport, CT 06604",Bridgeport,Bridgeport,Hollow,,41.19091,-73.19644,,Andrew Deli & Grocery,,Azure Maps,
3119255,United States,Fairfield,CT,Connecticut,06604-2741,"2032 Main Street, Bridgeport, CT 06604",Bridgeport,Bridgeport,,,41.19096,-73.19647,,Cochy Grocery,,Azure Maps,
227735,United States,Fairfield,CT,Connecticut,06897-4025,"5 River Road, Wilton, CT 06897",Wilton,Wilton,,,41.19098,-73.43041,,Kinnikinnick Foods,consumer.kinnikinnick.com/,Azure Maps,
217735,United States,Fairfield,CT,Connecticut,06897-4025,"5 River Road, Wilton, CT 06897",Wilton,Wilton,,,41.19098,-73.43041,,Super Stop & Shop,stores.stopandshop.com/ct/wilton/5-river-road,Azure Maps,
4019255,United States,Fairfield,CT,Connecticut,06608-1721,"382 Brooks Street, Bridgeport, CT 06608",Bridgeport,Bridgeport,East Side,,41.19135,-73.17948,,Rodriguez Market,,Azure Maps,
4119255,United States,Fairfield,CT,Connecticut,06608-1721,"384 Brooks Street, Bridgeport, CT 06608",Bridgeport,Bridgeport,East Side,,41.19137,-73.17948,,Ashley Food Market,,Azure Maps,
4319255,United States,Fairfield,CT,Connecticut,06608-1721,"384 Brooks Street, Bridgeport, CT 06608",Bridgeport,Bridgeport,East Side,,41.19137,-73.17948,,Lamia Grocery,,Azure Maps,
4219255,United States,Fairfield,CT,Connecticut,06608-1721,"384 Brooks Street, Bridgeport, CT 06608",Bridgeport,Bridgeport,East Side,,41.19137,-73.17948,,Yeli Mini Market,,Azure Maps,
4819255,United States,Fairfield,CT,Connecticut,06608-1743,"1268 Pembroke Street, Bridgeport, CT 06608",Bridgeport,Bridgeport,East Side,,41.19156,-73.17725,,Florida Supermarket,,Azure Maps,
5023029,United States,Fairfield,CT,Connecticut,06604-1290,"1050 Brooklawn Avenue, Bridgeport, CT 06604",Bridgeport,Bridgeport,,,41.192,-73.2197,,Grocery Village,,Azure Maps,
5123029,United States,Fairfield,CT,Connecticut,06608-1744,"1325 Pembroke Street, Bridgeport, CT 06608",Bridgeport,Bridgeport,East Side,,41.19223,-73.17714,,Los Muchachos,,Azure Maps,
4123029,United States,Fairfield,CT,Connecticut,06606-5516,"819 Madison Avenue, Bridgeport, CT 06606",Bridgeport,Bridgeport,,,41.19245,-73.20457,,Guelagetza Grocery,,Azure Maps,
8023029,United States,Fairfield,CT,Connecticut,06614-5213,"360 Boston Avenue, Stratford, CT 06614",Stratford,Stratford,,,41.19252,-73.15353,,C-Town,locations.ctownsupermarkets.com/ct-stratford-u41_1u41,Azure Maps,
8523029,United States,Fairfield,CT,Connecticut,06610-2641,"2063 Boston Avenue, Bridgeport, CT 06610",Bridgeport,Bridgeport,,,41.19263,-73.15622,,Boston Avenue Grocery,,Azure Maps,
3719255,United States,Fairfield,CT,Connecticut,06608-1528,"616 William Street, Bridgeport, CT 06608",Bridgeport,Bridgeport,East Side,,41.19265,-73.18546,,Bayamon Market,,Azure Maps,
4619255,United States,Fairfield,CT,Connecticut,06608-1400,"1335 East Main Street, Bridgeport, CT 06608",Bridgeport,Bridgeport,East Side,,41.19292,-73.18052,,Grocery Store El GALLO DORADO,,Azure Maps,
3923029,United States,Fairfield,CT,Connecticut,06606-5506,"821 Madison Avenue, Bridgeport, CT 06606",Bridgeport,Bridgeport,,,41.19306,-73.20504,,Bon Preto Supermarket,,Azure Maps,
6723029,United States,Fairfield,CT,Connecticut,06610-2720,"1905 Central Avenue, Bridgeport, CT 06610",Bridgeport,Bridgeport,,,41.1932,-73.16757,,Grocery Central,,Azure Maps,
4623029,United States,Fairfield,CT,Connecticut,06608-1400,"1369 East Main Street, Bridgeport, CT 06608",Bridgeport,Bridgeport,East Side,,41.19333,-73.1805,,Freddy's Market,,Azure Maps,
4523029,United States,Fairfield,CT,Connecticut,06608-1400,"1369 East Main Street, Bridgeport, CT 06608",Bridgeport,Bridgeport,East Side,,41.19333,-73.1805,,Sarah's Market,,Azure Maps,
3523029,United States,Fairfield,CT,Connecticut,06606-5314,"2251 Main Street, Bridgeport, CT 06606",Bridgeport,Bridgeport,,,41.19365,-73.19831,,City Supermarkets,www.pioneersupermarkets.com/,Azure Maps,
3423029,United States,Fairfield,CT,Connecticut,06606-5314,"2251 Main Street, Bridgeport, CT 06606",Bridgeport,Bridgeport,,,41.19365,-73.19831,,Key Food,www.keyfood.com/,Azure Maps,
3623029,United States,Fairfield,CT,Connecticut,06606-5314,"2251 Main Street, Bridgeport, CT 06606",Bridgeport,Bridgeport,,,41.19366,-73.19831,,Pioneer Supermarket,www.pioneersupermarkets.com/,Azure Maps,
9523029,United States,Fairfield,CT,Connecticut,06614-5306,"1796 Barnum Avenue, Stratford, CT 06614",Stratford,Stratford,,,41.19376,-73.14464,,I&I Food Store,www.krispykrunchy.com,Azure Maps,
7823029,United States,Fairfield,CT,Connecticut,06610-2546,"337 Kent Avenue, Bridgeport, CT 06610",Bridgeport,Bridgeport,,,41.19426,-73.15624,,Gabriela Papa,,Azure Maps,
3323029,United States,Fairfield,CT,Connecticut,06606-5220,"992 Madison Avenue, Bridgeport, CT 06606",Bridgeport,Bridgeport,,,41.1945,-73.20618,,Alma Flora Market,,Azure Maps,
3223029,United States,Fairfield,CT,Connecticut,06606-5324,"2351 Main Street, Bridgeport, CT 06606",Bridgeport,Bridgeport,,,41.195,-73.19925,,M & A Foodmart,,Azure Maps,
4223029,United States,Fairfield,CT,Connecticut,06608-1203,"254 Orchard Street, Bridgeport, CT 06608",Bridgeport,Bridgeport,East Side,,41.19521,-73.17819,,Mini Special Market,,Azure Maps,
3123029,United States,Fairfield,CT,Connecticut,06606-5324,"2381 Main Street, Bridgeport, CT 06606",Bridgeport,Bridgeport,,,41.1953,-73.19942,,Sam Food Market Office,,Azure Maps,
3823029,United States,Fairfield,CT,Connecticut,06608-1123,"1510 East Main Street, Bridgeport, CT 06608",Bridgeport,Bridgeport,East Side,,41.19539,-73.18042,,Omar Market,,Azure Maps,
7323029,United States,Fairfield,CT,Connecticut,06610-2528,"184 Success Avenue, Bridgeport, CT 06610",Bridgeport,Bridgeport,,,41.19562,-73.15794,,Success Corner & Variety,,Azure Maps,
2823029,United States,Fairfield,CT,Connecticut,06606-5323,"2428 Main Street, Bridgeport, CT 06606",Bridgeport,Bridgeport,,,41.19595,-73.19972,,Ronildos Meat Market,,Azure Maps,
3023029,United States,Fairfield,CT,Connecticut,06606-5723,"255 Lindley Street, Bridgeport, CT 06606",Bridgeport,Bridgeport,,,41.19597,-73.19195,,Pacis Market,,Azure Maps,
7123029,United States,Fairfield,CT,Connecticut,06610-2342,"336 Granfield Avenue, Bridgeport, CT 06610",Bridgeport,Bridgeport,,,41.1961,-73.15917,,Borowik Market,,Azure Maps,
2723029,United States,Fairfield,CT,Connecticut,06606-5323,"2440 Main Street, Bridgeport, CT 06606",Bridgeport,Bridgeport,,,41.19611,-73.19983,,Osadia Grocery,,Azure Maps,
2623029,United States,Fairfield,CT,Connecticut,06606-5323,"2442 Main Street, Bridgeport, CT 06606",Bridgeport,Bridgeport,,,41.19613,-73.19984,,Litle Brazil & Beyond,,Azure Maps,
3723029,United States,Fairfield,CT,Connecticut,06610-2108,"790 Boston Avenue, Bridgeport, CT 06610",Bridgeport,Bridgeport,East Side,,41.19625,-73.17766,,Convenience Mart,mobil.com,Azure Maps,
2523029,United States,Fairfield,CT,Connecticut,06606-5303,"2509 Main Street, Bridgeport, CT 06606",Bridgeport,Bridgeport,,,41.19692,-73.20046,,Gorge Grocery,,Azure Maps,
2423029,United States,Fairfield,CT,Connecticut,06606-4505,"1255 Madison Avenue, Bridgeport, CT 06606",Bridgeport,Bridgeport,,,41.19763,-73.20847,,Lou's Food,,Azure Maps,
2323029,United States,Fairfield,CT,Connecticut,06606-5447,"375 Capitol Avenue, Bridgeport, CT 06606",Bridgeport,Bridgeport,,,41.19774,-73.19845,,Mikes Supermarket,,Azure Maps,
2023029,United States,Fairfield,CT,Connecticut,06606-4667,"355 Hawley Avenue, Bridgeport, CT 06606",Bridgeport,Bridgeport,,,41.1997,-73.20358,,Big Y Market,www.bigy.com/,Azure Maps,
2223029,United States,Fairfield,CT,Connecticut,,"35 Hill Street, Bridgeport, CT 06606",Bridgeport,Bridgeport,,,41.19974,-73.18762,,Gourmet Foods,,Azure Maps,
5323029,United States,Fairfield,CT,Connecticut,06610-2402,"536 Success Avenue, Bridgeport, CT 06610",Bridgeport,Bridgeport,,,41.20031,-73.15665,,Success Market,,Azure Maps,
1823029,United States,Fairfield,CT,Connecticut,06606-4648,"251 Wayne Street, Bridgeport, CT 06606",Bridgeport,Bridgeport,North End,,41.20084,-73.20888,,Wayne St Groceries,,Azure Maps,
2123029,United States,Fairfield,CT,Connecticut,06610-1604,"164 Boston Avenue, Bridgeport, CT 06610",Bridgeport,Bridgeport,East Side,,41.20155,-73.18578,,Price Rite,,Azure Maps,
1723029,United States,Fairfield,CT,Connecticut,06606-4649,"343 Wayne Street, Bridgeport, CT 06606",Bridgeport,Bridgeport,North End,,41.20205,-73.20906,,Corner Variety Store,,Azure Maps,
697735,United States,Westchester,NY,New York,10506-1211,"602 Old Post Road, Bedford, NY 10506",Bedford,Bedford,,,41.20207,-73.64443,,Design Market Direct,,Azure Maps,
1923029,United States,Fairfield,CT,Connecticut,06610-1904,"2110 East Main Street, Bridgeport, CT 06610",Bridgeport,Bridgeport,,,41.20351,-73.17933,,La Placita Market,,Azure Maps,
117735,United States,Westchester,NY,New York,10590-2626,"469 Smith Ridge Road, South Salem, NY 10590",South Salem,Lewisboro,,,41.20377,-73.51057,,Vista Market,,Azure Maps,
1423029,United States,Fairfield,CT,Connecticut,06610-1928,"2281 East Main Street, Bridgeport, CT 06610",Bridgeport,Bridgeport,,,41.2058,-73.17897,,Nob Hill Deli & Grocery,,Azure Maps,
1323029,United States,Fairfield,CT,Connecticut,06606-3505,"143 Keeler Avenue, Bridgeport, CT 06606",Bridgeport,Bridgeport,,,41.2068,-73.20968,,Torres Variety Grocery,,Azure Maps,
1123029,United States,Fairfield,CT,Connecticut,06606-5126,"500 Sylvan Avenue, Bridgeport, CT 06606",Bridgeport,Bridgeport,,,41.20876,-73.1917,,Food Bazaar Supermarkets,www.myfoodbazaar.com,Azure Maps,
9215374,United States,New Haven,CT,Connecticut,06460-3106,"695 Bridgeport Avenue, Milford, CT 06460",Milford,Milford,,,41.20974,-73.08311,,Suremart,,Azure Maps,
9615374,United States,New Haven,CT,Connecticut,06460-6415,"1064 East Broadway, Milford, CT 06460",Milford,Milford,,,41.21097,-73.05542,,Food Fare Deli & Market,,Azure Maps,
9715374,United States,New Haven,CT,Connecticut,06460-6415,"1064 East Broadway, Milford, CT 06460",Milford,Milford,,,41.21097,-73.05542,,Food Fare and Market,,Azure Maps,
1223029,United States,Fairfield,CT,Connecticut,06606-2631,"2600 Madison Avenue, Bridgeport, CT 06606",Bridgeport,Bridgeport,North End,,41.21103,-73.22429,,Kinnikinnick Foods,consumer.kinnikinnick.com/,Azure Maps,
5626844,United States,Fairfield,CT,Connecticut,06606-3706,"464 Beechmont Avenue, Bridgeport, CT 06606",Bridgeport,Bridgeport,North End,,41.21133,-73.20792,,Beechmont,,Azure Maps,
8615374,United States,New Haven,CT,Connecticut,06460-3171,"855 Bridgeport Avenue, Milford, CT 06460",Milford,Milford,,,41.21283,-73.07816,,Kinnikinnick Foods,consumer.kinnikinnick.com/,Azure Maps,
8715374,United States,New Haven,CT,Connecticut,06460-3171,"855 Bridgeport Avenue, Milford, CT 06460",Milford,Milford,,,41.21283,-73.07816,,Super Stop & Shop,stores.stopandshop.com/ct/milford/855-bridgeport-avenue,Azure Maps,
5326844,United States,Fairfield,CT,Connecticut,06606-2813,"3853 Main Street, Bridgeport, CT 06606",Bridgeport,Bridgeport,North End,,41.21346,-73.21142,,Selam Meat & Grocery,,Azure Maps,
2923029,United States,Fairfield,CT,Connecticut,06614-3047,"20 Westchester Drive, Stratford, CT 06614",Stratford,Stratford,,,41.2137,-73.15149,,Krauszers Food Store,uhaul.com,Azure Maps,
1023029,United States,Fairfield,CT,Connecticut,06610-1465,"345 Huntington Turnpike, Bridgeport, CT 06610",Bridgeport,Bridgeport,,,41.21389,-73.17498,,Foodworld IGA,,Azure Maps,
7715374,United States,New Haven,CT,Connecticut,06460-3144,"975 Bridgeport Avenue, Milford, CT 06460",Milford,Milford,,,41.21532,-73.07273,,One Stop Grocery & Convenience,,Azure Maps,
4926844,United States,Fairfield,CT,Connecticut,06606-2923,"1056 Reservoir Avenue, Bridgeport, CT 06606",Bridgeport,Bridgeport,,,41.21534,-73.19202,,Morena Market,,Azure Maps,
107735,United States,Westchester,NY,New York,,"200 Oakridge Drive, South Salem, NY 10590",South Salem,Lewisboro,,,41.21646,-73.5175,,Art Jack Food Co,,Azure Maps,
7315374,United States,New Haven,CT,Connecticut,06460-3121,"155 Hill Street, Milford, CT 06460",Milford,Milford,,,41.21871,-73.07165,,American Frozen Foods,Americanfoods.com,Azure Maps,
6715374,United States,New Haven,CT,Connecticut,06460-3134,"150 Boston Post Road, Milford, CT 06460",Milford,Milford,,,41.21926,-73.07468,,Big Y World Class Market,www.bigy.com,Azure Maps,
4726844,United States,Fairfield,CT,Connecticut,06606-1837,"4425 Main Street, Bridgeport, CT 06606",Bridgeport,Bridgeport,North End,,41.21998,-73.21658,,Price Rite Of Bridgeport - Main Street,www.priceritesupermarkets.com,Azure Maps,
7215374,United States,New Haven,CT,Connecticut,06460-4734,"74 High Street, Milford, CT 06460",Milford,Milford,,,41.22022,-73.05827,,New Dental,,Azure Maps,
6315374,United States,New Haven,CT,Connecticut,06460-3158,"238 Boston Post Road, Milford, CT 06460",Milford,Milford,,FrontDoor,41.22162,-73.07453,,ALDI,,Azure Maps,
423029,United States,Fairfield,CT,Connecticut,06606-1818,"4531 Main Street, Bridgeport, CT 06606",Bridgeport,Bridgeport,North End,,41.22206,-73.21803,,Kinnikinnick Foods,consumer.kinnikinnick.com/,Azure Maps,
4526844,United States,Fairfield,CT,Connecticut,06606-1818,"4531 Main Street, Bridgeport, CT 06606",Bridgeport,Bridgeport,North End,,41.22206,-73.21803,,Super Stop & Shop,stores.stopandshop.com/ct/bridgeport/4531-main-street,Azure Maps,
7115374,United States,New Haven,CT,Connecticut,06460-4829,"246 New Haven Avenue, Milford, CT 06460",Milford,Milford,,,41.22285,-73.0463,,Healthy Foods Plus,,Azure Maps,
7515374,United States,New Haven,CT,Connecticut,06460-6664,"374 New Haven Avenue, Milford, CT 06460",Milford,Milford,,,41.22355,-73.04056,,National Gourmet Foods,,Azure Maps,
7815374,United States,New Haven,CT,Connecticut,06460-6745,"5 Pond Point Avenue, Milford, CT 06460",Milford,Milford,,,41.22469,-73.03019,,Krauszer's,,Azure Maps,
1730712,United States,Fairfield,CT,Connecticut,06897-1719,"274 Nod Hill Road, Wilton, CT 06897",Wilton,Wilton,,,41.22761,-73.45959,,Nicholas Roberts Fine Foods,,Azure Maps,
223029,United States,Fairfield,CT,Connecticut,06611-3502,"5065 Main St, Trumbull, CT 06611",Trumbull,Trumbull,,,41.2282,-73.22499,,Ur Stop,,Azure Maps,
4115374,United States,New Haven,CT,Connecticut,06460-2636,"532 Boston Post Road, Milford, CT 06460",Milford,Milford,,,41.22965,-73.06605,,Lin Asian Food Market,,Azure Maps,
323029,United States,Fairfield,CT,Connecticut,06611-3502,"5065 Main St, Trumbull, CT 06611",Trumbull,Trumbull,,,41.23052,-73.22315,,Fred Meyer,www.fredmeyer.com,Azure Maps,
4326844,United States,Fairfield,CT,Connecticut,06612-1947,"41 Harvest Moon Road, Easton, CT 06612",Easton,Easton,,,41.23172,-73.26795,,Bresky Henry & Sons,,Azure Maps,
1523029,United States,Fairfield,CT,Connecticut,06614-1514,"355 Hawley Lane, Stratford, CT 06614",Stratford,Stratford,,,41.23307,-73.14989,,Big Y World Class Market,www.bigy.com,Azure Maps,
5515374,United States,New Haven,CT,Connecticut,06460-3624,"East Town Road, Milford, CT 06460",Milford,Milford,,,41.23609,-73.03158,,Kinnikinnick Foods,consumer.kinnikinnick.com/,Azure Maps,
5315374,United States,New Haven,CT,Connecticut,06460-3623,"1360 East Town Road, Milford, CT 06460",Milford,Milford,,,41.2362,-73.0317,,Super Stop & Shop,stores.stopandshop.com/ct/milford/1360-east-town-road,Azure Maps,
4023029,United States,Fairfield,CT,Connecticut,06612-1801,"5 Austin Drive, Easton, CT 06612",Easton,Easton,,,41.23722,-73.26732,,Bresky Theodore H & L J,,Azure Maps,
6215374,United States,New Haven,CT,Connecticut,06460-2838,"100 Research Drive, Milford, CT 06460",Milford,Milford,,,41.23964,-73.01631,,Mina Foods,www.minafoods.com/liquor.html,Azure Maps,
1623029,United States,Fairfield,CT,Connecticut,06611-5436,"80 Merritt Boulevard, Trumbull, CT 06611",Trumbull,Trumbull,,,41.24022,-73.146,,Nasdaq Stock Market,www.nasdaq.com,Azure Maps,
4215374,United States,New Haven,CT,Connecticut,06460-2755,"1365 Boston Post Road, Milford, CT 06460",Milford,Milford,,,41.24161,-73.03065,,Walmart,www.walmart.com/store/5294/milford-ct/details,Azure Maps,
907735,United States,Westchester,NY,New York,10507-2001,"357 Adams Street, Bedford Hills, NY 10507",Bedford Hills,Bedford,,,41.24205,-73.68773,,Michael Decarvalho,,Azure Maps,
23029,United States,Fairfield,CT,Connecticut,06611-3903,"2 Daniels Farm Road, Trumbull, CT 06611",Trumbull,Trumbull,,,41.24621,-73.198,,Kinnikinnick Foods,consumer.kinnikinnick.com/,Azure Maps,
7615374,United States,New Haven,CT,Connecticut,06477-3623,"57 Robinson Boulevard, Orange, CT 06477",Orange,Orange,,,41.24681,-72.99212,,Melisi Food,Capecodchips.com,Azure Maps,
3315374,United States,New Haven,CT,Connecticut,06460-2776,"1686 Boston Post Road, Milford, CT 06460",Milford,Milford,,,41.24789,-73.0248,,Whole Foods Market,www.wholefoodsmarket.com/stores/milford,Azure Maps,
867735,United States,Westchester,NY,New York,10536-2107,"132 Bedford Road, Katonah, NY 10536",Katonah,Bedford,,,41.25122,-73.68336,,DeCicco Family Markets - Katonah,www.deciccomarket.com,Azure Maps,
857735,United States,Westchester,NY,New York,,"Katonah, NY 10536",Katonah,Bedford,,,41.25157,-73.68281,,DeCicco's,,Azure Maps,
4015374,United States,New Haven,CT,Connecticut,06477-3340,"560 Boston Post Road, Orange, CT 06477",Orange,Orange,,,41.25243,-73.01917,,Trader Joe's,locations.traderjoes.com/ct/orange/524/,Azure Maps,
6615374,United States,New Haven,CT,Connecticut,06516-4151,"301 Heffernan Drive, West Haven, CT 06516",West Haven,West Haven,,,41.25564,-72.98939,,Watson Foods Co,www.watson-inc.com,Azure Maps,
1226844,United States,Fairfield,CT,Connecticut,06611-3140,"100 Quality Street, Trumbull, CT 06611",Trumbull,Trumbull,,,41.25623,-73.21575,,Kinnikinnick Foods,consumer.kinnikinnick.com/,Azure Maps,
4715374,United States,New Haven,CT,Connecticut,06477-3614,"181 Marsh Hill Road, Orange, CT 06477",Orange,Orange,,,41.25843,-73.00049,,Restaurant Depot,www.restaurantdepot.com,Azure Maps,
827735,United States,Westchester,NY,New York,10536-2132,"93 Katonah Avenue, Katonah, NY 10536",Katonah,Bedford,,,41.25847,-73.68415,,Village Market of Katonah,,Azure Maps,
3215374,United States,New Haven,CT,Connecticut,06477-3507,"401 Boston Post Road, Orange, CT 06477",Orange,Orange,,,41.26022,-73.00956,,Ocean State Jobbers,,Azure Maps,
157735,United States,Westchester,NY,New York,10518-1400,"788 Route 35, Cross River, NY 10518",Cross River,Lewisboro,,,41.26246,-73.61402,,Fifth Division Market,,Azure Maps,
2226844,United States,Fairfield,CT,Connecticut,,"898 Bridgeport Avenue, Shelton, CT 06484",Shelton,Shelton,,,41.26435,-73.13352,,Kinnikinnick Foods,consumer.kinnikinnick.com/,Azure Maps,
2326844,United States,Fairfield,CT,Connecticut,,"898 Bridgeport Avenue, Shelton, CT 06484",Shelton,Shelton,,,41.26435,-73.13352,,Stop & Shop,stores.stopandshop.com/ct/shelton/898-bridgeport-avenue,Azure Maps,
2026844,United States,Fairfield,CT,Connecticut,06484-4621,"875 Bridgeport Avenue, Shelton, CT 06484",Shelton,Shelton,,,41.26553,-73.13249,,ShopRite Of Shelton,shoprite.com/store/647F3989,Azure Maps,
6815374,United States,New Haven,CT,Connecticut,06516-3924,"59 Bull Hill Lane, West Haven, CT 06516",West Haven,West Haven,,,41.2684,-72.97957,,Shop Rite,,Azure Maps,
137735,United States,Westchester,NY,New York,10518-1111,"Route 35, Cross River, NY 10518",Cross River,Lewisboro,,,41.2686,-73.60628,,Fifth Division Market,,Azure Maps,
127735,United States,Westchester,NY,New York,,"890 Old Post Road, Cross River, NY 10518",Cross River,Lewisboro,,,41.26869,-73.6046,,Kinnikinnick Foods,consumer.kinnikinnick.com/,Azure Maps,
7015374,United States,New Haven,CT,Connecticut,,"535 Saw Mill Road, West Haven, CT 06516",West Haven,West Haven,,,41.2691,-72.97825,,ALDI,www.aldi.us/en/weekly-specials/our-weekly-ads/,Azure Maps,
1826844,United States,Fairfield,CT,Connecticut,06484-4717,"825 Bridgeport Avenue, Shelton, CT 06484",Shelton,Shelton,,,41.2694,-73.12885,,ShopRite,www.shoprite.com/,Azure Maps,
7415374,United States,New Haven,CT,Connecticut,06516-4046,"502 Saw Mill Road, West Haven, CT 06516",West Haven,West Haven,,,41.2697,-72.97576,,Greatway Food Store,,Azure Maps,
6915374,United States,New Haven,CT,Connecticut,06516-4045,"515 Saw Mill Road, West Haven, CT 06516",West Haven,West Haven,,FrontDoor,41.27008,-72.97732,,Walmart,www.walmart.com/store/3803/west-haven-ct/details,Azure Maps,
5015374,United States,New Haven,CT,Connecticut,06516-3942,"221 Bull Hill Lane, West Haven, CT 06516",West Haven,West Haven,,,41.27277,-72.98607,,Big Bargain Convenience,,Azure Maps,
4315374,United States,New Haven,CT,Connecticut,,"259 Bull Hill Lane, Orange, CT 06477",Orange,Orange,,,41.27379,-72.98741,,Kinnikinnick Foods,consumer.kinnikinnick.com/,Azure Maps,
4415374,United States,New Haven,CT,Connecticut,,"259 Bull Hill Lane, Orange, CT 06477",Orange,Orange,,,41.27379,-72.98741,,"ShopRite Of Orange, Ct",shop.shoprite.com/store/ec50123779,Azure Maps,
8515374,United States,New Haven,CT,Connecticut,06516-4114,"211 Saw Mill Road, West Haven, CT 06516",West Haven,West Haven,,,41.27402,-72.96494,,Tiba Halal Market / Mediterranean Flavor,,Azure Maps,
8815374,United States,New Haven,CT,Connecticut,06516-3554,"319 York Street, West Haven, CT 06516",West Haven,West Haven,,,41.27414,-72.96463,,Congress Market,,Azure Maps,
1326844,United States,Fairfield,CT,Connecticut,06484-6269,"2 Corporate Drive, Shelton, CT 06484",Shelton,Shelton,,,41.27617,-73.12952,,Nasdaq Stock Market,www.nasdaq.com,Azure Maps,
687735,United States,Westchester,NY,New York,,"100 Goldens Bridge Road, Katonah, NY 10526",Katonah,Lewisboro,,,41.27657,-73.68018,,A & P Food Store,local.acmemarkets.com,Azure Maps,
27735,United States,Fairfield,CT,Connecticut,06877-4627,"360 Main Street, Ridgefield, CT 06877",Ridgefield,Ridgefield,,,41.28018,-73.49834,,Ridgefield Water Supply Co,,Azure Maps,
2715374,United States,New Haven,CT,Connecticut,06477-2400,"661 Orange Center Road, Orange, CT 06477",Orange,Orange,,,41.28175,-73.02805,,Orange Center Convenience,orangeedc.com/DEFAULT.ASP,Azure Maps,
17735,United States,Fairfield,CT,Connecticut,06877-4508,"424 Main Street, Ridgefield, CT 06877",Ridgefield,Ridgefield,,,41.2824,-73.49848,,Milillo Farms,www.ridgefieldapartments.com,Azure Maps,
4515374,United States,New Haven,CT,Connecticut,06516-2222,"1088 Orange Avenue, West Haven, CT 06516",West Haven,West Haven,,,41.28253,-72.98144,,C & A Market,,Azure Maps,
7735,United States,Fairfield,CT,Connecticut,06877-4509,"18-20 Prospect Street, Ridgefield, CT 06877",Ridgefield,Ridgefield,,,41.28335,-73.49805,,Kinnikinnick Foods,consumer.kinnikinnick.com/,Azure Maps,
4815374,United States,New Haven,CT,Connecticut,06516-1732,"215 Tuthill Street, West Haven, CT 06516",West Haven,West Haven,,,41.28444,-72.97989,,Future Meat Market,,Azure Maps,
9815374,United States,New Haven,CT,Connecticut,06516-2769,"818 1st Avenue, West Haven, CT 06516",West Haven,West Haven,,,41.28563,-72.95367,,Envios Las Americas,,Azure Maps,
6115374,United States,New Haven,CT,Connecticut,06516-1900,"702 Orange Avenue, West Haven, CT 06516",West Haven,West Haven,,,41.28821,-72.97207,,Aldeans Market,,Azure Maps,
1315374,United States,Fairfield,CT,Connecticut,06484-6122,"14 Forest Parkway, Shelton, CT 06484",Shelton,Shelton,,,41.28935,-73.10517,,Stop & Shop,www.stopandshop.com,Azure Maps,
8115374,United States,New Haven,CT,Connecticut,06516-2099,"1131 Campbell Avenue, West Haven, CT 06516",West Haven,West Haven,,,41.28988,-72.95898,,ShopRite,www.shoprite.com/,Azure Maps,
1415374,United States,Fairfield,CT,Connecticut,06484-4751,"465 Bridgeport Avenue, Shelton, CT 06484",Shelton,Shelton,,,41.28999,-73.11234,,Walmart,www.walmart.com/store/2163/shelton-ct/details,Azure Maps,
37735,United States,Fairfield,CT,Connecticut,06877-4019,"42 Danbury Road, Ridgefield, CT 06877",Ridgefield,Ridgefield,,,41.2903,-73.49719,,A & P Tea Co,,Azure Maps,
2015374,United States,New Haven,CT,Connecticut,06477-1521,"767 Derby Milford Road, Orange, CT 06477",Orange,Orange,,,41.29205,-73.0565,,Sprouts Farmers Market,www.sprouts.com,Azure Maps,
430712,United States,Fairfield,CT,Connecticut,06877-4107,"109 Danbury Road, Ridgefield, CT 06877",Ridgefield,Ridgefield,,,41.29329,-73.49307,,Ridgefield Organics & Specialty Market,www.ridgefieldorganics.com,Azure Maps,
617735,United States,Westchester,NY,New York,,"Goldens Bridge, NY 10526",Goldens Bridge,Lewisboro,,,41.29352,-73.67613,,ACME Markets,https://local.acmemarkets.com/ny/goldens-bridge/100-route-22.html,Azure Maps,
330712,United States,Fairfield,CT,Connecticut,06877-4111,"125 Danbury Road, Ridgefield, CT 06877",Ridgefield,Ridgefield,,,41.2946,-73.4929,,Kinnikinnick Foods,consumer.kinnikinnick.com/,Azure Maps,
530712,United States,Fairfield,CT,Connecticut,,"Ridgefield, CT 06877",Ridgefield,Ridgefield,,,41.29488,-73.49475,,Stop & Shop Pharmacy,pharmacy.stopandshop.com/ct/ridgefield/125-danbury-road-rte-35,Azure Maps,
1015374,United States,Fairfield,CT,Connecticut,06484-5303,"401 Bridgeport Avenue, Shelton, CT 06484",Shelton,Shelton,,,41.29494,-73.10942,,Big Y World Class Market,www.bigy.com,Azure Maps,
1626844,United States,Fairfield,CT,Connecticut,06484-5304,"401 Bridgeport Avenue, Shelton, CT 06484",Shelton,Shelton,,,41.29494,-73.10942,,The Market Place,,Azure Maps,
7915374,United States,New Haven,CT,Connecticut,06516-2027,"193 Orange Avenue, West Haven, CT 06516",West Haven,West Haven,,,41.29581,-72.95759,,Alling Town Mini Market,,Azure Maps,
8215374,United States,New Haven,CT,Connecticut,06516-2001,"163 Orange Avenue, West Haven, CT 06516",West Haven,West Haven,,,41.29611,-72.95672,,Spotless Linens,,Azure Maps,
2115374,United States,Fairfield,CT,Connecticut,06484-5211,"17 Huntington Plaza, Shelton, CT 06484",Shelton,Shelton,,,41.29612,-73.14554,,Kim's Light Foods,,Azure Maps,
8015374,United States,New Haven,CT,Connecticut,06516-1653,"80 Gilbert Street, West Haven, CT 06516",West Haven,West Haven,,,41.29873,-72.95643,,Sandoval Deli Mart,,Azure Maps,
4430712,United States,Fairfield,CT,Connecticut,06877-2917,"262 West Mountain Road, Ridgefield, CT 06877",Ridgefield,Ridgefield,,,41.29915,-73.53595,,Ridgefield Water Supply Co Pumping Station,,Azure Maps,
237735,United States,Westchester,NY,New York,10526-1402,"100 Waccabuc Road, Goldens Bridge, NY 10526",Goldens Bridge,Lewisboro,,,41.29941,-73.63682,,A & P,,Azure Maps,
5115374,United States,New Haven,CT,Connecticut,06516-1007,"486 Derby Avenue, West Haven, CT 06516",West Haven,West Haven,,,41.30586,-72.9721,,Everclear Water,,Azure Maps,
1030712,United States,Fairfield,CT,Connecticut,06612-1054,"65 Fieldstone Drive, Easton, CT 06612",Easton,Easton,,,41.30742,-73.27698,,Fieldstone Marketing,,Azure Maps,
1726844,United States,Fairfield,CT,Connecticut,06484-3254,"99 Bridgeport Avenue, Shelton, CT 06484",Shelton,Shelton,,,41.31014,-73.09787,,Cpu Shelton Food Mart,,Azure Maps,
9415374,United States,New Haven,CT,Connecticut,06511-5129,"794 George Street, New Haven, CT 06511",New Haven,New Haven,,,41.31063,-72.94951,,Daily Stop,,Azure Maps,
1615374,United States,New Haven,CT,Connecticut,06418-2522,"656 New Haven Avenue, Derby, CT 06418",Derby,Derby,,,41.31152,-73.05254,,Big Y World Class Market,www.bigy.com,Azure Maps,
1715374,United States,New Haven,CT,Connecticut,06418-2522,"656 New Haven Avenue, Derby, CT 06418",Derby,Derby,,,41.31152,-73.05254,,IGA,www.iga.com,Azure Maps,
9515374,United States,New Haven,CT,Connecticut,06511-4251,"1569 Chapel Street, New Haven, CT 06511",New Haven,New Haven,,,41.31219,-72.94837,,Luck Star Market,,Azure Maps,
9115374,United States,New Haven,CT,Connecticut,06511-4200,"1613 Chapel Street, New Haven, CT 06511",New Haven,New Haven,Edgewood,,41.31265,-72.95045,,Reyes Market,,Azure Maps,
226844,United States,Fairfield,CT,Connecticut,06468-2357,"470 Monroe Turnpike, Monroe, CT 06468",Monroe,Monroe,,,41.31516,-73.21764,,Kinnikinnick Foods,consumer.kinnikinnick.com/,Azure Maps,
326844,United States,Fairfield,CT,Connecticut,06468-2357,"470 Monroe Turnpike, Monroe, CT 06468",Monroe,Monroe,,,41.31516,-73.21764,,Stop & Shop,stores.stopandshop.com/ct/monroe/470-monroe-turnpike,Azure Maps,
126844,United States,Fairfield,CT,Connecticut,06468-2362,"487 Monroe Turnpike, Monroe, CT 06468",Monroe,Monroe,,,41.31605,-73.21683,,Monroe Food Mart,www.monroeps.org,Azure Maps,
26844,United States,Fairfield,CT,Connecticut,06468-2310,"535 Monroe Turnpike, Monroe, CT 06468",Monroe,Monroe,,,41.31867,-73.21444,,Big Y World Class Market,www.bigy.com,Azure Maps,
2630712,United States,Fairfield,CT,Connecticut,06468-1150,"388 Main Street, Monroe, CT 06468",Monroe,Monroe,,,41.31958,-73.26258,,Team Four Foods,Teamfourfoods.com,Azure Maps,
15374,United States,New Haven,CT,Connecticut,06418-1934,"143 Main Street, Derby, CT 06418",Derby,Derby,,,41.31966,-73.08685,,Island Star,,Azure Maps,
2330712,United States,Fairfield,CT,Connecticut,06468-1112,"444 Main Street, Monroe, CT 06468",Monroe,Monroe,,,41.32267,-73.26526,,Kinnikinnick Foods,consumer.kinnikinnick.com/,Azure Maps,
115374,United States,New Haven,CT,Connecticut,06418-1814,"160 Elizabeth Street, Derby, CT 06418",Derby,Derby,,,41.32315,-73.08962,,Checker Food Store,,Azure Maps,
9015374,United States,New Haven,CT,Connecticut,06515-1311,"287 Blake Street, New Haven, CT 06515",New Haven,New Haven,Beaver Hills,,41.32724,-72.95318,,Campus Convenience,,Azure Maps,
6415374,United States,New Haven,CT,Connecticut,06515-1703,"1057 Whalley Avenue, New Haven, CT 06515",New Haven,New Haven,Amity,,41.32881,-72.96538,,Acme Market,www.acmemarkets.com,Azure Maps,
6515374,United States,New Haven,CT,Connecticut,06515-1703,"1057 Whalley Avenue, New Haven, CT 06515",New Haven,New Haven,Amity,,41.32881,-72.96538,,Lucky 777 Food Mart,,Azure Maps,
2926844,United States,New Haven,CT,Connecticut,06418-1433,"72 Pershing Drive, Derby, CT 06418",Derby,Derby,,,41.33022,-73.085,,ALDI Food Market,,Azure Maps,
6015374,United States,New Haven,CT,Connecticut,06515-1217,"295 Valley Street, New Haven, CT 06515",New Haven,New Haven,Amity,,41.33133,-72.9685,,Ali Deli Grocery,,Azure Maps,
4915374,United States,New Haven,CT,Connecticut,06515-1101,"1320 Whalley Avenue, New Haven, CT 06515",New Haven,New Haven,Amity,,41.3314,-72.9734,,Gushers Food Mart,,Azure Maps,
2826844,United States,New Haven,CT,Connecticut,06418-1433,"49 Pershing Drive, Derby, CT 06418",Derby,Derby,,,41.3315,-73.08451,,Save A Stores,,Azure Maps,
2726844,United States,New Haven,CT,Connecticut,06418-1433,"49 Pershing Drive, Derby, CT 06418",Derby,Derby,,,41.3315,-73.08451,,ShopRite Of Derby,shoprite.com/store/161A614,Azure Maps,
4615374,United States,New Haven,CT,Connecticut,06515-1101,"1336 Whalley Avenue, New Haven, CT 06515",New Haven,New Haven,Amity,,41.33177,-72.97396,,Gsam Food Mart,,Azure Maps,
3126844,United States,New Haven,CT,Connecticut,06401-2100,"100 Division Street, Ansonia, CT 06401",Ansonia,Ansonia,,,41.332,-73.08221,,Kinnikinnick Foods,consumer.kinnikinnick.com/,Azure Maps,
3026844,United States,New Haven,CT,Connecticut,06401-2100,"100 Division Street, Ansonia, CT 06401",Ansonia,Ansonia,,,41.332,-73.08221,,Stop & Shop Pharmacy,pharmacy.stopandshop.com/ct/ansonia/100-division-street,Azure Maps,
1815374,United States,Fairfield,CT,Connecticut,06484-1809,"200 Leavenworth Road, Shelton, CT 06484",Shelton,Shelton,,,41.33296,-73.13801,,Adams Hometown Market,www.adamshometownmarkets.com,Azure Maps,
30712,United States,Fairfield,CT,Connecticut,06810-7530,"68 Sugar Hollow Road, Danbury, CT 06810",Danbury,Danbury,,,41.33297,-73.4725,,Town Line Variety Store,,Azure Maps,
3526844,United States,New Haven,CT,Connecticut,06401-3241,"52 Platt Street, Ansonia, CT 06401",Ansonia,Ansonia,,,41.33374,-73.0742,,Platt Grocers,,Azure Maps,
3415374,United States,New Haven,CT,Connecticut,06515-1405,"112 Amity Road, New Haven, CT 06515",New Haven,New Haven,Amity,,41.33808,-72.97988,,Kinnikinnick Foods,consumer.kinnikinnick.com/,Azure Maps,
3515374,United States,New Haven,CT,Connecticut,06515-1405,"112 Amity Road, New Haven, CT 06515",New Haven,New Haven,Amity,,41.33808,-72.97988,,Stop & Shop,stores.stopandshop.com/ct/new-haven/112-amity-road,Azure Maps,
5415374,United States,New Haven,CT,Connecticut,06515-1135,"589 Valley Street, New Haven, CT 06515",New Haven,New Haven,Amity,,41.33859,-72.97347,,Valley Mart,,Azure Maps,
1115374,United States,New Haven,CT,Connecticut,06401-2303,"360 Main Street, Ansonia, CT 06401",Ansonia,Ansonia,,,41.3411,-73.07794,,Mabuhay Asian Store,,Azure Maps,
3915374,United States,New Haven,CT,Connecticut,06525-2237,"214 Amity Road, Woodbridge, CT 06525",Woodbridge,Woodbridge,,,41.34121,-72.9826,,Central Atlantic Collegiate Conference,www.caccathletics.org,Azure Maps,
1515374,United States,New Haven,CT,Connecticut,06401-2407,"3 Hill Street, Ansonia, CT 06401",Ansonia,Ansonia,,,41.34126,-73.07089,,Danas Market,,Azure Maps,
8315374,United States,New Haven,CT,Connecticut,06515-1007,"128 Wilmot Road, New Haven, CT 06515",New Haven,New Haven,West Rock,,41.34156,-72.95769,,Shop Mart,,Azure Maps,
8415374,United States,New Haven,CT,Connecticut,06515-1007,"122 Wilmot Road, New Haven, CT 06515",New Haven,New Haven,West Rock,,41.3424,-72.9577,,West Rock Deli,,Azure Maps,
1215374,United States,New Haven,CT,Connecticut,06401-1708,"55 Church Street, Ansonia, CT 06401",Ansonia,Ansonia,,,41.34477,-73.08945,,New Haven Food Mart,,Azure Maps,
767735,United States,Westchester,NY,New York,10519-7008,"14 Front Street, Croton Falls, NY 10519",Croton Falls,North Salem,,,41.3485,-73.66283,,Whos Cooking,,Azure Maps,
1915374,United States,New Haven,CT,Connecticut,06401-1631,"147 North Main Street, Ansonia, CT 06401",Ansonia,Ansonia,,,41.35217,-73.08092,,Mini Market,,Azure Maps,
147735,United States,Westchester,NY,New York,10560-1400,"1 Dingle Ridge Road, North Salem, NY 10560",North Salem,North Salem,,,41.35394,-73.56819,,121 Next Door,www.121kitchen.com/,Azure Maps,
2215374,United States,New Haven,CT,Connecticut,06401-1449,"403 North Main Street, Ansonia, CT 06401",Ansonia,Ansonia,,,41.36122,-73.08298,,Big Y Market,www.bigy.com/,Azure Maps,
1126844,United States,New Haven,CT,Connecticut,06483-2214,"110 Great Hill Road, Seymour, CT 06483",Seymour,Seymour,,,41.3658,-73.11826,,Great Hill General Store,,Azure Maps,
230712,United States,Fairfield,CT,Connecticut,06801-2100,"10 Elizabeth Street, Bethel, CT 06801",Bethel,Bethel,,,41.37059,-73.41512,,Sprouts Farmers Market,www.sprouts.com,Azure Maps,
130712,United States,Fairfield,CT,Connecticut,06801-2506,"98 Greenwood Avenue, Bethel, CT 06801",Bethel,Bethel,,,41.37125,-73.41003,,Caraluzzi's Bethel Food Market,www.caraluzzi.com,Azure Maps,
5530712,United States,Fairfield,CT,Connecticut,06470-2700,"228 South Main Street, Newtown, CT 06470",Newtown,Newtown,,,41.37152,-73.27197,,Kinnikinnick Foods,consumer.kinnikinnick.com/,Azure Maps,
1026844,United States,Fairfield,CT,Connecticut,06470-2700,"228 South Main Street, Newtown, CT 06470",Newtown,Newtown,,,41.37152,-73.27197,,Stop & Shop Pharmacy,pharmacy.stopandshop.com/ct/newtown/228-s-main-street,Azure Maps,
667735,United States,Putnam,NY,New York,10509-2208,"100 Route 22, Brewster, NY 10509",Brewster,Southeast,,,41.37168,-73.63733,,A & P 32-207,,Azure Maps,
177735,United States,Fairfield,CT,Connecticut,,"7 Backus Avenue, Danbury, CT 06810",Danbury,Danbury,,,41.3779,-73.4786,,Lucky Brand,stores.luckybrand.com/lucky-brand-6a7fffb3131d,Azure Maps,
167735,United States,Fairfield,CT,Connecticut,06810-7432,"5C Sugar Hollow Road, Danbury, CT 06810",Danbury,Danbury,,,41.37999,-73.47506,,Whole Foods Market,www.wholefoodsmarket.com/stores/danbury,Azure Maps,
197735,United States,Fairfield,CT,Connecticut,,"44-46 Lake Avenue Extension, Danbury, CT 06811",Danbury,Danbury,,,41.38654,-73.48764,,Kinnikinnick Foods,consumer.kinnikinnick.com/,Azure Maps,
187735,United States,Fairfield,CT,Connecticut,,"44 Lake Avenue Extension, Danbury, CT 06811",Danbury,Danbury,,,41.38654,-73.48764,,Super Stop & Shop,stores.stopandshop.com/ct/danbury/44-lake-avenue-ext,Azure Maps,
1230712,United States,Fairfield,CT,Connecticut,06810-8198,"91 South Street, Danbury, CT 06810",Danbury,Danbury,,,41.38795,-73.43897,,Disorbo Market,,Azure Maps,
1930712,United States,Fairfield,CT,Connecticut,06810-3002,"29 Main Street, Danbury, CT 06810",Danbury,Danbury,,,41.38807,-73.44612,,Price Rite,www.priceritesupermarkets.com,Azure Maps,
267735,United States,Fairfield,CT,Connecticut,06810-6346,"72 Lake Avenue, Danbury, CT 06810",Danbury,Danbury,,,41.38867,-73.46912,,Tienda Ecuador,www.tiendaecuador.com,Azure Maps,
257735,United States,Fairfield,CT,Connecticut,06810-6346,"78 Lake Avenue, Danbury, CT 06810",Danbury,Danbury,,,41.38867,-73.46964,,Ferry Grocery,,Azure Maps,
1430712,United States,Fairfield,CT,Connecticut,06810-8155,"49 South Street, Danbury, CT 06810",Danbury,Danbury,,,41.38877,-73.43549,,La Tienda Latina Grocery,,Azure Maps,
1330712,United States,Fairfield,CT,Connecticut,06810-8155,"49 South Street, Danbury, CT 06810",Danbury,Danbury,,,41.38877,-73.43549,,Lapaix Grocery,,Azure Maps,
1630712,United States,Fairfield,CT,Connecticut,,"41 South Street, Danbury, CT 06810",Danbury,Danbury,,,41.38897,-73.43429,,Reina De La Nube,,Azure Maps,
277735,United States,Fairfield,CT,Connecticut,06810-6345,"44 Lake Avenue, Danbury, CT 06810",Danbury,Danbury,,,41.38924,-73.46776,,Stop & Shop,www.stopandshop.com/,Azure Maps,
1530712,United States,Fairfield,CT,Connecticut,06810-7041,"22 Shelter Rock Road, Danbury, CT 06810",Danbury,Danbury,,,41.38962,-73.433,,Kidderia,,Azure Maps,
1830712,United States,Fairfield,CT,Connecticut,06810-6955,"2 Lee Mac Avenue, Danbury, CT 06810",Danbury,Danbury,,,41.3907,-73.43359,,Mega Business,,Azure Maps,
1130712,United States,Fairfield,CT,Connecticut,06810-7044,"84 Shelter Rock Road, Danbury, CT 06810",Danbury,Danbury,,,41.39099,-73.42603,,Sam's Food Stores,www.samsfoodstores.com,Azure Maps,
2130712,United States,Fairfield,CT,Connecticut,06810-7833,"92 Main Street, Danbury, CT 06810",Danbury,Danbury,Downtown Danbury,,41.39105,-73.44886,,El Rancho Foods,,Azure Maps,
307735,United States,Fairfield,CT,Connecticut,06811-5277,"113 Mill Plain Road, Danbury, CT 06811",Danbury,Danbury,,,41.39183,-73.52236,,Trader Joe's,locations.traderjoes.com/ct/danbury/525/,Azure Maps,
287735,United States,Fairfield,CT,Connecticut,06811-5140,"80 Mill Plain Road, Danbury, CT 06811",Danbury,Danbury,,,41.39219,-73.50678,,Dandy Foods,www.dandydistributors.com,Azure Maps,
2430712,United States,Fairfield,CT,Connecticut,06810-6747,"99 Town Hill Avenue, Danbury, CT 06810",Danbury,Danbury,,,41.3941,-73.44608,,Fernandes Food Store,,Azure Maps,
2730712,United States,Fairfield,CT,Connecticut,06810-2624,"203 Main Street, Danbury, CT 06810",Danbury,Danbury,Downtown Danbury,,41.39417,-73.4519,,Main Street Deli & Market,,Azure Maps,
2030712,United States,Fairfield,CT,Connecticut,06810-6900,"107 Triangle Street, Danbury, CT 06810",Danbury,Danbury,,,41.39434,-73.43571,,Lanas Mercearia Brazilian Supermarket,,Azure Maps,
847735,United States,Putnam,NY,New York,10509-1423,"70 Main Street, Brewster, NY 10509",Brewster,Brewster,,,41.3944,-73.61815,,La Guadalupana,,Azure Maps,
807735,United States,Putnam,NY,New York,10509-1400,"82 Main Street, Brewster, NY 10509",Brewster,Brewster,,,41.39443,-73.61749,,Enocs Market,,Azure Maps,
817735,United States,Putnam,NY,New York,10509-1400,"82 Main Street, Brewster, NY 10509",Brewster,Brewster,,,41.39443,-73.61749,,Tatiana S Grocery Store,,Azure Maps,
797735,United States,Putnam,NY,New York,10509-1400,"90 Main Street, Brewster, NY 10509",Brewster,Brewster,,,41.39444,-73.61727,,Kobacker Store Mt Grocers,,Azure Maps,
3530712,United States,Fairfield,CT,Connecticut,06810-6514,"11 Spring Street, Danbury, CT 06810",Danbury,Danbury,,,41.39496,-73.45801,,Rodriguez Grocery Store,,Azure Maps,
3430712,United States,Fairfield,CT,Connecticut,06810-6514,"11 Spring Street, Danbury, CT 06810",Danbury,Danbury,,,41.39496,-73.45801,,Spring Market,,Azure Maps,
327735,United States,Fairfield,CT,Connecticut,06811-4222,"4 Old Mill Plain Road, Danbury, CT 06811",Danbury,Danbury,,,41.39513,-73.51594,,Ecua American Foods,,Azure Maps,
3015374,United States,New Haven,CT,Connecticut,06483-2814,"16 Bank Street, Seymour, CT 06483",Seymour,Seymour,,,41.39554,-73.0734,,The All-American Valley General Store,redcloverblossom.com,Azure Maps,
3930712,United States,Fairfield,CT,Connecticut,06810-6506,"116 Elm Street, Danbury, CT 06810",Danbury,Danbury,,,41.39563,-73.46126,,Perez Groceries,,Azure Maps,
777735,United States,Putnam,NY,New York,10509-1443,"145 Main Street, Brewster, NY 10509",Brewster,Brewster,,,41.39577,-73.61092,,Saj and V Grocery,,Azure Maps,
3630712,United States,Fairfield,CT,Connecticut,06810-5817,"301 Main Street, Danbury, CT 06810",Danbury,Danbury,Downtown Danbury,,41.39666,-73.45464,,Hat City Market,,Azure Maps,
2530712,United States,Fairfield,CT,Connecticut,06810-6836,"28 Wildman Street, Danbury, CT 06810",Danbury,Danbury,,,41.39699,-73.43937,,Torres Groceries,,Azure Maps,
737735,United States,Putnam,NY,New York,10509-1526,"979 Route 22, Brewster, NY 10509",Brewster,Southeast,,,41.39741,-73.60299,,The Village Supermarket,,Azure Maps,
3115374,United States,New Haven,CT,Connecticut,06483-3451,"14 New Haven Road, Seymour, CT 06483",Seymour,Seymour,,,41.39792,-73.06734,,Seymour Food Mart,,Azure Maps,
3730712,United States,Fairfield,CT,Connecticut,06810-5908,"9 Balmforth Avenue, Danbury, CT 06810",Danbury,Danbury,,,41.39877,-73.45166,,Light Rock Spring Water Co,,Azure Maps,
447735,United States,Fairfield,CT,Connecticut,06810-5442,"18 Henry Street, Danbury, CT 06810",Danbury,Danbury,,,41.39922,-73.46623,,E&D's Deli And Grocery Store,,Azure Maps,
3230712,United States,Fairfield,CT,Connecticut,06810-6875,"213 White Street, Danbury, CT 06810",Danbury,Danbury,,,41.39948,-73.44126,,Pague Menos,,Azure Maps,
4330712,United States,Fairfield,CT,Connecticut,06810-5803,"1 East Franklin Street, Danbury, CT 06810",Danbury,Danbury,,,41.39964,-73.45796,,Manuel Grocery,,Azure Maps,
4230712,United States,Fairfield,CT,Connecticut,06810-5524,"363 Main Street, Danbury, CT 06810",Danbury,Danbury,,,41.39968,-73.45807,,Bombay Sweet & Spicey,,Azure Maps,
3615374,United States,New Haven,CT,Connecticut,06483-2809,"15 Franklin Street, Seymour, CT 06483",Seymour,Seymour,,,41.40061,-73.07211,,Kinnikinnick Foods,consumer.kinnikinnick.com/,Azure Maps,
3715374,United States,New Haven,CT,Connecticut,06483-2809,"15 Franklin Street, Seymour, CT 06483",Seymour,Seymour,,,41.40061,-73.07211,,Stop & Shop,stores.stopandshop.com/ct/seymour/15-franklin-street,Azure Maps,
4830712,United States,Fairfield,CT,Connecticut,06810-5525,"397 Main Street, Danbury, CT 06810",Danbury,Danbury,,,41.4021,-73.45901,,Zaytuna Groceries,,Azure Maps,
5230712,United States,Fairfield,CT,Connecticut,06810-5619,"28 North Street, Danbury, CT 06810",Danbury,Danbury,,,41.40442,-73.45696,,Espinal Grocery,,Azure Maps,
3330712,United States,Fairfield,CT,Connecticut,06810-6223,"63 Newtown Road, Danbury, CT 06810",Danbury,Danbury,,,41.40555,-73.42002,,ALDI Food Market,,Azure Maps,
5430712,United States,Fairfield,CT,Connecticut,06810-5617,"45 North Street, Danbury, CT 06810",Danbury,Danbury,,,41.40555,-73.45642,,C-Town,locations.ctownsupermarkets.com/ct-danbury-pu41_052,Azure Maps,
4030712,United States,Fairfield,CT,Connecticut,06810-6236,"72 Newtown Road, Danbury, CT 06810",Danbury,Danbury,,,41.40563,-73.41977,,Super Stop & Shop,stores.stopandshop.com/ct/danbury/72-newtown-road,Azure Maps,
3830712,United States,Fairfield,CT,Connecticut,06810-6238,"67 Newtown Road, Danbury, CT 06810",Danbury,Danbury,,,41.4094,-73.41479,,Walmart,www.walmart.com/store/3543/danbury-ct/details,Azure Maps,
4130712,United States,Fairfield,CT,Connecticut,06810-4174,"15 Old Sherman Turnpike, Danbury, CT 06810",Danbury,Danbury,,,41.41029,-73.40743,,Family Foods,,Azure Maps,
577735,United States,Fairfield,CT,Connecticut,06811-4803,"10 Hayestown Avenue, Danbury, CT 06811",Danbury,Danbury,,,41.41231,-73.45494,,Kk Asian Market,,Azure Maps,
587735,United States,Fairfield,CT,Connecticut,,"1 Padanaram Road, Danbury, CT 06811",Danbury,Danbury,,,41.41261,-73.45736,,ShopRite Of Danbury,shoprite.com/store/D367123778,Azure Maps,
5030712,United States,Fairfield,CT,Connecticut,06810-4129,"28 Eagle Road, Danbury, CT 06810",Danbury,Danbury,,,41.41275,-73.42099,,Culligan,www.culligan.com/,Azure Maps,
4126844,United States,Fairfield,CT,Connecticut,,"6 Queen Street, Newtown, CT 06470",Newtown,Newtown,,,41.41322,-73.3032,,Big Y World Class Market,www.bigy.com,Azure Maps,
4626844,United States,Fairfield,CT,Connecticut,06470-2105,"29 Main Street, Newtown, CT 06470",Newtown,Newtown,,,41.41327,-73.30867,,Pricerite,,Azure Maps,
5130712,United States,Fairfield,CT,Connecticut,06801-3037,"78 Stony Hill Road, Bethel, CT 06801",Bethel,Bethel,,,41.41402,-73.37815,,Uk Gourmet,www.ukg.life,Azure Maps,
4730712,United States,Fairfield,CT,Connecticut,06801-3038,"83 Stony Hill Road, Bethel, CT 06801",Bethel,Bethel,,,41.4141,-73.37861,,Big Y World Class Market,www.bigy.com,Azure Maps,
597735,United States,Fairfield,CT,Connecticut,,"5 Padanaram Road, Danbury, CT 06811",Danbury,Danbury,,,41.41429,-73.45931,,Bombay Sweet & Spices,www.bombaysweetsandspices.com/,Azure Maps,
5330712,United States,Fairfield,CT,Connecticut,06810-4138,"1 Pocono Lane, Danbury, CT 06810",Danbury,Danbury,,,41.41554,-73.40906,,Fast Freddies,,Azure Maps,
5730712,United States,Fairfield,CT,Connecticut,06801-1048,"10 Stony Hill Road, Bethel, CT 06801",Bethel,Bethel,,,41.41696,-73.39899,,Lebanese Market,,Azure Maps,
637735,United States,Fairfield,CT,Connecticut,,"52 Padanaram Road, Danbury, CT 06811",Danbury,Danbury,,,41.41797,-73.46392,,Super Halal Meat & Grocery,,Azure Maps,
657735,United States,Fairfield,CT,Connecticut,06811-3700,"39 Padanaram Road, Danbury, CT 06811",Danbury,Danbury,,,41.41807,-73.46414,,Indian Food & Spice,www.indianfoodandspicedanbury.com,Azure Maps,
897735,United States,Putnam,NY,New York,10509-4008,"1511 Route 22, Brewster, NY 10509",Brewster,Southeast,,,41.42059,-73.57656,,ACME Markets,acmemarkets.com,Azure Maps,
4826844,United States,New Haven,CT,Connecticut,06478-1656,"300 Oxford Road, Oxford, CT 06478",Oxford,Oxford,,,41.42392,-73.10865,,Price Chopper,www.pricechopper.com,Azure Maps,
7830712,United States,Fairfield,CT,Connecticut,06804-2507,"143 Federal Road, Brookfield, CT 06804",Brookfield,Brookfield,,,41.43854,-73.40745,,ShopRite Of Brookfield,https://shoprite.com/store/410C612,Azure Maps,
8530712,United States,Fairfield,CT,Connecticut,06811-3043,"52 Pembroke Road, Danbury, CT 06811",Danbury,Danbury,,,41.44343,-73.47277,,Black Gold Food Mart,,Azure Maps,
9030712,United States,Fairfield,CT,Connecticut,06804-2015,"499 Federal Road, Brookfield, CT 06804",Brookfield,Brookfield,,,41.4612,-73.40694,,American Euro Foods,www.ameurofoods.com,Azure Maps,
6726844,United States,New Haven,CT,Connecticut,06488-2212,"775 Main Street South, Southbury, CT 06488",Southbury,Southbury,,,41.46384,-73.23147,,Shop Rite,shop.shoprite.com,Azure Maps,
8926844,United States,New Haven,CT,Connecticut,06488-2644,"150 Kettletown Road, Southbury, CT 06488",Southbury,Southbury,,,41.47254,-73.20708,,IBM-Tem IGA Us,www.iga.com,Azure Maps,
1,,,,,,,,,,,,,,,,Grocery Table,A & P Food Stores
2,,,,,,,,,,,,,,,,Grocery Table,ACME Markets
3,,,,,,,,,,,,,,,,Grocery Table,Albertsons
4,,,,,,,,,,,,,,,,Grocery Table,ALDI
5,,,,,,,,,,,,,,,,Grocery Table,Amazon
6,,,,,,,,,,,,,,,,Grocery Table,Amazon Fresh
7,,,,,,,,,,,,,,,,Grocery Table,Amazon Go
8,,,,,,,,,,,,,,,,Grocery Table,Balducci's
9,,,,,,,,,,,,,,,,Grocery Table,Beit Brothers Supermarket
10,,,,,,,,,,,,,,,,Grocery Table,Big Value Super Mkt.
11,,,,,,,,,,,,,,,,Grocery Table,Big Y Foods
12,,,,,,,,,,,,,,,,Grocery Table,BJ's Wholesale Club
13,,,,,,,,,,,,,,,,Grocery Table,Bravo Supermarket
14,,,,,,,,,,,,,,,,Grocery Table,C Town
15,,,,,,,,,,,,,,,,Grocery Table,Ceriello Fine Foods
16,,,,,,,,,,,,,,,,Grocery Table,Costco
17,,,,,,,,,,,,,,,,Grocery Table,Cumberland Farms
18,,,,,,,,,,,,,,,,Grocery Table,D & M Supermarket
19,,,,,,,,,,,,,,,,Grocery Table,Food Bag
20,,,,,,,,,,,,,,,,Grocery Table,Food Emporium
21,,,,,,,,,,,,,,,,Grocery Table,Foodmart
22,,,,,,,,,,,,,,,,Grocery Table,Francescos Fabulous Foods LLC
23,,,,,,,,,,,,,,,,Grocery Table,Fresh Direct
24,,,,,,,,,,,,,,,,Grocery Table,Geissler's Super Mkt.
25,,,,,,,,,,,,,,,,Grocery Table,Giant
26,,,,,,,,,,,,,,,,Grocery Table,Grand Union Co
27,,,,,,,,,,,,,,,,Grocery Table,Haggen
28,,,,,,,,,,,,,,,,Grocery Table,Hannaford
29,,,,,,,,,,,,,,,,Grocery Table,Kings
30,,,,,,,,,,,,,,,,Grocery Table,Krauszers
31,,,,,,,,,,,,,,,,Grocery Table,Market Street
32,,,,,,,,,,,,,,,,Grocery Table,Patco Handy Stop
33,,,,,,,,,,,,,,,,Grocery Table,Pavillions
34,,,,,,,,,,,,,,,,Grocery Table,Peadpod
35,,,,,,,,,,,,,,,,Grocery Table,Price Chopper
36,,,,,,,,,,,,,,,,Grocery Table,Price Rite
37,,,,,,,,,,,,,,,,Grocery Table,Randalls
38,,,,,,,,,,,,,,,,Grocery Table,SAFEWAY
39,,,,,,,,,,,,,,,,Grocery Table,Sam's Club
40,,,,,,,,,,,,,,,,Grocery Table,Save A Lot
41,,,,,,,,,,,,,,,,Grocery Table,Shaws
42,,,,,,,,,,,,,,,,Grocery Table,Shaw's Osco
43,,,,,,,,,,,,,,,,Grocery Table,Shaws Star Market
44,,,,,,,,,,,,,,,,Grocery Table,ShopRite
45,,,,,,,,,,,,,,,,Grocery Table,Stop & GO
46,,,,,,,,,,,,,,,,Grocery Table,Stop & Save
47,,,,,,,,,,,,,,,,Grocery Table,Stop & Shop
48,,,,,,,,,,,,,,,,Grocery Table,Stop One Grocery
49,,,,,,,,,,,,,,,,Grocery Table,Sunny Ridge Supermarket
50,,,,,,,,,,,,,,,,Grocery Table,Sunshine Foods
51,,,,,,,,,,,,,,,,Grocery Table,Superior Supermarket
52,,,,,,,,,,,,,,,,Grocery Table,Trader Joe's
53,,,,,,,,,,,,,,,,Grocery Table,Wal-Mart Supercenter
54,,,,,,,,,,,,,,,,Grocery Table,Weis Markets
55,,,,,,,,,,,,,,,,Grocery Table,WHOLE FOODS
56,,,,,,,,,,,,,,,,Grocery Table,Dollar General
57,,,,,,,,,,,,,,,,Grocery Table,Dollar General Market
58,,,,,,,,,,,,,,,,Grocery Table,Dollar Tree
59,,,,,,,,,,,,,,,,Grocery Table,Family Dollar
60,,,,,,,,,,,,,,,,Grocery Table,Price Chopper
61,,,,,,,,,,,,,,,,Grocery Table,Tops
62,,,,,,,,,,,,,,,,Grocery Table,Market by Price Chopper
63,,,,,,,,,,,,,,,,Grocery Table,H-E-B
64,,,,,,,,,,,,,,,,Grocery Table,Central Market
65,,,,,,,,,,,,,,,,Grocery Table,Joe V's
66,,,,,,,,,,,,,,,,Grocery Table,Mi Tienda
67,,,,,,,,,,,,,,,,Grocery Table,HyVee
68,,,,,,,,,,,,,,,,Grocery Table,Kroger
69,,,,,,,,,,,,,,,,Grocery Table,Fred Meyer
70,,,,,,,,,,,,,,,,Grocery Table,Dillons Food Stores
71,,,,,,,,,,,,,,,,Grocery Table,Mariano's
72,,,,,,,,,,,,,,,,Grocery Table,Meijer
73,,,,,,,,,,,,,,,,Grocery Table,Fresh Thyme Market
74,,,,,,,,,,,,,,,,Grocery Table,Walmart
75,,,,,,,,,,,,,,,,Grocery Table,Price Rite
76,,,,,,,,,,,,,,,,Grocery Table,ShopRite
77,,,,,,,,,,,,,,,,Grocery Table,The Fresh Grocer
78,,,,,,,,,,,,,,,,Grocery Table,Wegmans
79,,,,,,,,,,,,,,,,Grocery Table,Weis Markets
80,,,,,,,,,,,,,,,,Grocery Table,Wawa
81,,,,,,,,,,,,,,,,Grocery Table,Target
